[
  {
    "type": "node",
    "id": 255174165,
    "lat": 43.5366971,
    "lon": -5.6829704,
    "tags": {
      "addr:city": "Gijón",
      "brand": "Alimerka",
      "brand:wikidata": "Q16482738",
      "brand:wikipedia": "es:Alimerka",
      "name": "Alimerka",
      "shop": "supermarket",
      "wheelchair": "yes"
    }
  },
  {
    "type": "node",
    "id": 256367236,
    "lat": 43.366551,
    "lon": -5.8495642,
    "tags": {
      "addr:city": "Oviedo",
      "addr:housenumber": "75",
      "addr:postcode": "33001",
      "addr:street": "Calle General Elorza",
      "brand": "Hipercor",
      "brand:wikidata": "Q191574",
      "name": "Hipercor",
      "shop": "supermarket"
    }
  },
  {
    "type": "node",
    "id": 256367249,
    "lat": 43.3672759,
    "lon": -5.8492206,
    "tags": {
      "addr:city": "Oviedo",
      "brand": "Mercadona",
      "brand:wikidata": "Q377705",
      "brand:wikipedia": "es:Mercadona",
      "name": "Mercadona",
      "shop": "supermarket",
      "website": "https://www.mercadona.es"
    }
  },
  {
    "type": "node",
    "id": 415295042,
    "lat": 43.4224395,
    "lon": -4.7582444,
    "tags": {
      "brand": "Dia",
      "brand:wikidata": "Q925132",
      "brand:wikipedia": "es:DIA (supermercados)",
      "name": "Dia",
      "shop": "supermarket"
    }
  },
  {
    "type": "node",
    "id": 441919378,
    "lat": 43.3693379,
    "lon": -5.8203296,
    "tags": {
      "brand": "Alimerka",
      "brand:wikidata": "Q16482738",
      "brand:wikipedia": "es:Alimerka",
      "name": "Alimerka",
      "shop": "supermarket"
    }
  },
  {
    "type": "node",
    "id": 441919760,
    "lat": 43.3626005,
    "lon": -5.8373931,
    "tags": {
      "addr:city": "Oviedo",
      "brand": "masymas",
      "brand:wikidata": "Q6135987",
      "brand:wikipedia": "es:Supermercados Masymas",
      "name": "masymas",
      "operator": "Hijos de Luis Rodríguez, S.A.",
      "operator:wikidata": "Q111520108",
      "shop": "supermarket"
    }
  },
  {
    "type": "node",
    "id": 452416666,
    "lat": 43.5133432,
    "lon": -5.5985668,
    "tags": {
      "shop": "supermarket"
    }
  },
  {
    "type": "node",
    "id": 481013836,
    "lat": 43.4206323,
    "lon": -4.7568287,
    "tags": {
      "addr:housenumber": "7",
      "addr:street": "Calle Manuel Romano",
      "brand": "Alcampo",
      "brand:wikidata": "Q2832081",
      "check_date": "2024-08-18",
      "name": "Alcampo",
      "opening_hours": "Mo-Sa 09:00-21:30",
      "operator": "Día",
      "shop": "supermarket"
    }
  },
  {
    "type": "node",
    "id": 493409778,
    "lat": 43.3728775,
    "lon": -5.852672,
    "tags": {
      "addr:city": "Oviedo",
      "brand": "Alimerka",
      "brand:wikidata": "Q16482738",
      "brand:wikipedia": "es:Alimerka",
      "check_date:opening_hours": "2025-11-22",
      "diet:gluten_free": "limited",
      "diet:lactose_free": "limited",
      "name": "Alimerka",
      "opening_hours": "Mo-Sa 09:00-21:30",
      "organic": "yes",
      "payment:cards": "yes",
      "payment:cash": "yes",
      "payment:qr_code": "no",
      "phone": "+34 985 79 21 00",
      "shop": "supermarket",
      "website": "https://www.alimerka.es"
    }
  },
  {
    "type": "node",
    "id": 501833013,
    "lat": 43.4232656,
    "lon": -4.8645481,
    "tags": {
      "addr:city": "Posada de Llanes",
      "brand": "Alimerka",
      "brand:wikidata": "Q16482738",
      "brand:wikipedia": "es:Alimerka",
      "check_date": "2024-09-29",
      "name": "Alimerka",
      "shop": "supermarket"
    }
  },
  {
    "type": "node",
    "id": 521603996,
    "lat": 43.4293672,
    "lon": -4.8097462,
    "tags": {
      "name": "Supermercado Peñamesada",
      "shop": "supermarket"
    }
  },
  {
    "type": "node",
    "id": 612107220,
    "lat": 43.3583529,
    "lon": -5.8687489,
    "tags": {
      "brand": "Alimerka",
      "brand:wikidata": "Q16482738",
      "brand:wikipedia": "es:Alimerka",
      "name": "Alimerka",
      "opening_hours": "Mo-Sa 10:00-21:00",
      "shop": "supermarket"
    }
  },
  {
    "type": "node",
    "id": 660472249,
    "lat": 43.5693784,
    "lon": -6.9444762,
    "tags": {
      "brand": "Dia",
      "brand:wikidata": "Q925132",
      "name": "Dia",
      "opening_hours": "Mo-Sa 09:00-21:00",
      "shop": "supermarket"
    }
  },
  {
    "type": "node",
    "id": 673425747,
    "lat": 43.3713216,
    "lon": -5.8313169,
    "tags": {
      "addr:city": "Oviedo",
      "brand": "Carrefour",
      "brand:wikidata": "Q217599",
      "brand:wikipedia": "fr:Carrefour (enseigne)",
      "level": "0",
      "name": "Carrefour",
      "shop": "supermarket",
      "wheelchair": "yes",
      "wheelchair:description": "Itinerario aceras no accesible en su totalidad"
    }
  },
  {
    "type": "node",
    "id": 802223588,
    "lat": 43.5363983,
    "lon": -5.6646321,
    "tags": {
      "addr:city": "Gijón",
      "name": "El Árbol",
      "opening_hours": "Mo-Sa 09:00-21:00",
      "shop": "supermarket",
      "wheelchair": "yes"
    }
  },
  {
    "type": "node",
    "id": 839251749,
    "lat": 43.3348835,
    "lon": -6.4169721,
    "tags": {
      "addr:city": "Tineo/Tinéu",
      "shop": "supermarket"
    }
  },
  {
    "type": "node",
    "id": 859015226,
    "lat": 43.5369241,
    "lon": -7.0476998,
    "tags": {
      "brand": "Alimerka",
      "brand:wikidata": "Q16482738",
      "brand:wikipedia": "es:Alimerka",
      "name": "Alimerka",
      "opening_hours": "09:00-21:00",
      "shop": "supermarket"
    }
  },
  {
    "type": "node",
    "id": 861105345,
    "lat": 43.3638678,
    "lon": -5.8627621,
    "tags": {
      "brand": "masymas",
      "brand:wikidata": "Q6135987",
      "brand:wikipedia": "es:Supermercados Masymas",
      "name": "masymas",
      "opening_hours": "Mo-Sa 09:00-21:30",
      "operator": "Hijos de Luis Rodríguez, S.A.",
      "operator:wikidata": "Q111520108",
      "shop": "supermarket"
    }
  },
  {
    "type": "node",
    "id": 861114728,
    "lat": 43.3632315,
    "lon": -5.8532852,
    "tags": {
      "addr:city": "Oviedo",
      "addr:street": "Calle Gil de Jaz",
      "brand": "Alcampo",
      "brand:wikidata": "Q2832081",
      "name": "Alcampo",
      "shop": "supermarket"
    }
  },
  {
    "type": "node",
    "id": 893556617,
    "lat": 43.064235,
    "lon": -5.3764884,
    "tags": {
      "name": "Bajos del Toneo",
      "shop": "supermarket"
    }
  },
  {
    "type": "node",
    "id": 893558734,
    "lat": 43.063848,
    "lon": -5.3730356,
    "tags": {
      "name": "Conty",
      "shop": "supermarket"
    }
  },
  {
    "type": "node",
    "id": 893559159,
    "lat": 43.063865,
    "lon": -5.3727628,
    "tags": {
      "operator": "Tienda Ski",
      "shop": "supermarket"
    }
  },
  {
    "type": "node",
    "id": 950742942,
    "lat": 43.5387876,
    "lon": -5.6866559,
    "tags": {
      "addr:city": "Gijón",
      "brand": "masymas",
      "brand:wikidata": "Q6135987",
      "brand:wikipedia": "es:Supermercados Masymas",
      "name": "masymas",
      "operator": "Hijos de Luis Rodríguez, S.A.",
      "operator:wikidata": "Q111520108",
      "shop": "supermarket",
      "wheelchair": "yes"
    }
  },
  {
    "type": "node",
    "id": 950757291,
    "lat": 43.5401493,
    "lon": -5.6879764,
    "tags": {
      "brand": "Mercadona",
      "brand:wikidata": "Q377705",
      "name": "Mercadona",
      "shop": "supermarket"
    }
  },
  {
    "type": "node",
    "id": 962270164,
    "lat": 43.1779233,
    "lon": -6.5524226,
    "tags": {
      "name": "Plaza de Abastos de Cangas de Narcea",
      "shop": "supermarket"
    }
  },
  {
    "type": "node",
    "id": 995060790,
    "lat": 43.3594409,
    "lon": -5.8454791,
    "tags": {
      "addr:city": "Oviedo",
      "brand": "Mercadona",
      "brand:wikidata": "Q377705",
      "brand:wikipedia": "es:Mercadona",
      "name": "Mercadona",
      "opening_hours": "Mo-Sa 09:00-21:30",
      "shop": "supermarket",
      "website": "https://www.mercadona.es",
      "wheelchair": "yes"
    }
  },
  {
    "type": "node",
    "id": 1052453544,
    "lat": 43.5413125,
    "lon": -5.6711112,
    "tags": {
      "addr:city": "Gijón",
      "addr:street": "Marques de San Estebán",
      "brand": "Alimerka",
      "brand:wikidata": "Q16482738",
      "brand:wikipedia": "es:Alimerka",
      "name": "Alimerka",
      "opening_hours": "Mo-Sa 09:00-21:30",
      "shop": "supermarket",
      "wheelchair": "yes"
    }
  },
  {
    "type": "node",
    "id": 1174623112,
    "lat": 43.2734027,
    "lon": -5.5901788,
    "tags": {
      "addr:housenumber": "30",
      "addr:postcode": "33960",
      "addr:street": "Avenida de la Libertad",
      "brand": "Alimerka",
      "brand:wikidata": "Q16482738",
      "brand:wikipedia": "es:Alimerka",
      "name": "Alimerka",
      "shop": "supermarket"
    }
  },
  {
    "type": "node",
    "id": 1259382075,
    "lat": 43.3581054,
    "lon": -5.9205592,
    "tags": {
      "addr:city": "San Claudio",
      "brand": "Alimerka",
      "brand:wikidata": "Q16482738",
      "brand:wikipedia": "es:Alimerka",
      "name": "Alimerka",
      "opening_hours": "Mo-Sa 09:30-21:00",
      "shop": "supermarket",
      "wheelchair": "yes"
    }
  },
  {
    "type": "node",
    "id": 1272041159,
    "lat": 43.4184703,
    "lon": -4.7534478,
    "tags": {
      "name": "Casa Contró",
      "shop": "supermarket"
    }
  },
  {
    "type": "node",
    "id": 1304029342,
    "lat": 43.3634315,
    "lon": -5.8640362,
    "tags": {
      "brand": "Alimerka",
      "brand:wikidata": "Q16482738",
      "brand:wikipedia": "es:Alimerka",
      "name": "Alimerka",
      "shop": "supermarket"
    }
  },
  {
    "type": "node",
    "id": 1423785058,
    "lat": 43.4648315,
    "lon": -7.0513933,
    "tags": {
      "addr:city": "Vegadeo",
      "addr:postcode": "33770",
      "addr:street": "C/ Hermanas Fernández de la Vega",
      "brand": "La Plaza de DIA",
      "brand:wikidata": "Q58904673",
      "name": "La Plaza de DIA",
      "shop": "supermarket"
    }
  },
  {
    "type": "node",
    "id": 1426024897,
    "lat": 43.3490597,
    "lon": -7.1920185,
    "tags": {
      "addr:city": "Pontenova",
      "brand": "Spar",
      "brand:wikidata": "Q610492",
      "brand:wikipedia": "es:SPAR",
      "name": "Spar",
      "shop": "supermarket"
    }
  },
  {
    "type": "node",
    "id": 1429381496,
    "lat": 43.3485409,
    "lon": -7.1922412,
    "tags": {
      "addr:city": "Pontenova",
      "brand": "Gadis",
      "brand:wikidata": "Q114398305",
      "brand:wikipedia": "gl:Gadisa",
      "name": "Gadis",
      "shop": "supermarket",
      "source": "survey"
    }
  },
  {
    "type": "node",
    "id": 1437443409,
    "lat": 43.3727866,
    "lon": -5.8305013,
    "tags": {
      "addr:city": "Oviedo",
      "addr:street": "Avenida de Lisboa",
      "brand": "Mercadona",
      "brand:wikidata": "Q377705",
      "brand:wikipedia": "es:Mercadona",
      "check_date": "2025-12-10",
      "name": "Mercadona",
      "operator": "Mercadona",
      "shop": "supermarket",
      "website": "https://www.mercadona.es",
      "wheelchair": "yes"
    }
  },
  {
    "type": "node",
    "id": 1437445289,
    "lat": 43.3664132,
    "lon": -5.8429281,
    "tags": {
      "addr:city": "Oviedo",
      "addr:street": "Calle Emilio Alarcos Llorach",
      "brand": "masymas",
      "brand:wikidata": "Q6135987",
      "brand:wikipedia": "es:Supermercados Masymas",
      "check_date": "2025-04-09",
      "name": "masymas",
      "operator": "Hijos de Luis Rodríguez, S.A.",
      "operator:wikidata": "Q111520108",
      "shop": "supermarket"
    }
  },
  {
    "type": "node",
    "id": 1457727696,
    "lat": 43.3925209,
    "lon": -5.7065065,
    "tags": {
      "brand": "Dia",
      "brand:wikidata": "Q925132",
      "brand:wikipedia": "es:DIA (supermercados)",
      "name": "Dia",
      "shop": "supermarket"
    }
  },
  {
    "type": "node",
    "id": 1457727938,
    "lat": 43.3935994,
    "lon": -5.7051758,
    "tags": {
      "brand": "Alimerka",
      "brand:wikidata": "Q16482738",
      "brand:wikipedia": "es:Alimerka",
      "name": "Alimerka",
      "shop": "supermarket"
    }
  },
  {
    "type": "node",
    "id": 1540300602,
    "lat": 43.4652022,
    "lon": -7.0532614,
    "tags": {
      "addr:city": "Vegadeo",
      "addr:postcode": "33770",
      "addr:street": "Avda. de Galicia",
      "brand": "Alimerka",
      "brand:wikidata": "Q16482738",
      "brand:wikipedia": "es:Alimerka",
      "check_date": "2024-08-14",
      "name": "Alimerka",
      "shop": "supermarket",
      "wheelchair": "yes"
    }
  },
  {
    "type": "node",
    "id": 1616512215,
    "lat": 43.545682,
    "lon": -7.1557388,
    "tags": {
      "name": "Cluń",
      "shop": "supermarket",
      "wheelchair": "yes"
    }
  },
  {
    "type": "node",
    "id": 1649044182,
    "lat": 43.3538082,
    "lon": -5.8431774,
    "tags": {
      "addr:city": "Oviedo",
      "addr:housenumber": "7",
      "addr:postcode": "33008",
      "addr:street": "Calle San Lázaro",
      "brand": "Dia",
      "brand:wikidata": "Q925132",
      "name": "Dia",
      "phone": "+34 985 201372",
      "shop": "supermarket",
      "website": "http://www.grupoelarbol.com/"
    }
  },
  {
    "type": "node",
    "id": 1704985463,
    "lat": 43.5718876,
    "lon": -5.9555317,
    "tags": {
      "addr:city": "Salinas",
      "brand": "Alimerka",
      "brand:wikidata": "Q16482738",
      "brand:wikipedia": "es:Alimerka",
      "name": "Alimerka",
      "opening_hours": "Mo-Sa 09:00-21:30",
      "shop": "supermarket",
      "wheelchair": "yes"
    }
  },
  {
    "type": "node",
    "id": 1757366842,
    "lat": 43.4847994,
    "lon": -5.2670355,
    "tags": {
      "addr:city": "Colunga",
      "brand": "Alimerka",
      "brand:wikidata": "Q16482738",
      "brand:wikipedia": "es:Alimerka",
      "name": "Alimerka",
      "opening_hours": "Mo-Sa 09:00-21:30",
      "shop": "supermarket"
    }
  },
  {
    "type": "node",
    "id": 1757366894,
    "lat": 43.4851734,
    "lon": -5.2699459,
    "tags": {
      "addr:city": "Colunga",
      "brand": "masymas",
      "brand:wikidata": "Q6135987",
      "brand:wikipedia": "es:Supermercados Masymas",
      "name": "masymas",
      "operator": "Hijos de Luis Rodríguez, S.A.",
      "operator:wikidata": "Q111520108",
      "shop": "supermarket"
    }
  },
  {
    "type": "node",
    "id": 1757366907,
    "lat": 43.4862993,
    "lon": -5.2697366,
    "tags": {
      "name": "Dia",
      "opening_hours": "Mo-Sa 09:00-21:30",
      "shop": "supermarket"
    }
  },
  {
    "type": "node",
    "id": 1767969876,
    "lat": 43.5311619,
    "lon": -5.6334889,
    "tags": {
      "name": "Autoservicios Familia",
      "opening_hours": "Mo-Sa 09:00-21:45",
      "phone": "+34 985336210;+34 944050514",
      "shop": "supermarket",
      "website": "https://www.familiaonline.es/"
    }
  },
  {
    "type": "node",
    "id": 1768005114,
    "lat": 43.5358968,
    "lon": -5.6386041,
    "tags": {
      "addr:city": "Gijón",
      "brand": "Alimerka",
      "brand:wikidata": "Q16482738",
      "brand:wikipedia": "es:Alimerka",
      "name": "Alimerka",
      "shop": "supermarket"
    }
  },
  {
    "type": "node",
    "id": 1838992725,
    "lat": 43.5349515,
    "lon": -7.0422249,
    "tags": {
      "brand": "Eroski",
      "brand:wikidata": "Q1361349",
      "brand:wikipedia": "en:Eroski",
      "contact:phone": "+34 982129685",
      "name": "Eroski",
      "opening_hours": "Mo-Sa 09:00-21:30; Su off",
      "shop": "supermarket",
      "source": "survey"
    }
  },
  {
    "type": "node",
    "id": 1851246347,
    "lat": 43.537571,
    "lon": -5.901804,
    "tags": {
      "brand": "Alimerka",
      "brand:wikidata": "Q16482738",
      "brand:wikipedia": "es:Alimerka",
      "name": "Alimerka",
      "shop": "supermarket",
      "wheelchair": "limited"
    }
  },
  {
    "type": "node",
    "id": 1888067998,
    "lat": 43.1284641,
    "lon": -4.7870316,
    "tags": {
      "addr:city": "Espinama",
      "brand": "Spar",
      "brand:wikidata": "Q610492",
      "brand:wikipedia": "es:SPAR",
      "name": "Spar",
      "opening_hours": "Mo-Sa 10:00-14:00, 17:00-19:00",
      "shop": "supermarket"
    }
  },
  {
    "type": "node",
    "id": 1912651186,
    "lat": 43.153881,
    "lon": -4.6252972,
    "tags": {
      "addr:housenumber": "13",
      "addr:postcode": "39570",
      "addr:street": "Calle de la Serna",
      "brand": "Lupa",
      "brand:wikidata": "Q58044048",
      "name": "Lupa",
      "opening_hours": "Mo 09:00-21:00; Tu-Sa 09:00-15:00,17:00-21:00",
      "shop": "supermarket",
      "wheelchair": "yes"
    }
  },
  {
    "type": "node",
    "id": 1953471143,
    "lat": 43.5466257,
    "lon": -6.3867516,
    "tags": {
      "addr:city": "Cadavedo",
      "name": "Tandy - Charcuteria",
      "shop": "supermarket"
    }
  },
  {
    "type": "node",
    "id": 1959221301,
    "lat": 43.5417328,
    "lon": -6.5350916,
    "tags": {
      "addr:city": "Luarca/Ḷḷuarca",
      "brand": "Alimerka",
      "brand:wikidata": "Q16482738",
      "brand:wikipedia": "es:Alimerka",
      "name": "Alimerka",
      "shop": "supermarket"
    }
  },
  {
    "type": "node",
    "id": 1968283025,
    "lat": 43.463549,
    "lon": -5.0650138,
    "tags": {
      "brand": "Dia",
      "brand:wikidata": "Q925132",
      "brand:wikipedia": "es:DIA (supermercados)",
      "name": "Dia",
      "shop": "supermarket"
    }
  },
  {
    "type": "node",
    "id": 1968934061,
    "lat": 43.3614655,
    "lon": -5.8569676,
    "tags": {
      "addr:city": "Oviedo",
      "addr:postcode": "33005",
      "addr:street": "Plaza de América",
      "brand": "Alcampo",
      "brand:wikidata": "Q2832081",
      "check_date": "2023-05-26",
      "name": "Alcampo",
      "opening_hours": "Mo-Sa 09:00-21:00",
      "operator:wikidata": "Q925132",
      "operator:wikipedia": "es:Supermercados DIA",
      "payment:cash": "yes",
      "payment:credit_cards": "yes",
      "shop": "supermarket"
    }
  },
  {
    "type": "node",
    "id": 1973053874,
    "lat": 43.573102,
    "lon": -5.9631374,
    "tags": {
      "addr:city": "Salinas",
      "brand": "Alimerka",
      "brand:wikidata": "Q16482738",
      "brand:wikipedia": "es:Alimerka",
      "name": "Alimerka",
      "shop": "supermarket"
    }
  },
  {
    "type": "node",
    "id": 1981733932,
    "lat": 43.34848,
    "lon": -5.1308346,
    "tags": {
      "addr:city": "Cangas de Onís / Cangues d'Onís",
      "brand": "Alimerka",
      "brand:wikidata": "Q16482738",
      "brand:wikipedia": "es:Alimerka",
      "check_date:opening_hours": "2024-04-26",
      "name": "Alimerka",
      "opening_hours": "Mo-Sa 09:00-21:30",
      "shop": "supermarket"
    }
  },
  {
    "type": "node",
    "id": 1992784569,
    "lat": 43.5743364,
    "lon": -5.9288215,
    "tags": {
      "brand": "Dia",
      "brand:wikidata": "Q925132",
      "brand:wikipedia": "es:DIA (supermercados)",
      "name": "Dia",
      "shop": "supermarket",
      "wheelchair": "yes"
    }
  },
  {
    "type": "node",
    "id": 1992785270,
    "lat": 43.5737132,
    "lon": -5.9287428,
    "tags": {
      "brand": "Lidl",
      "brand:website": "https://www.lidl.es",
      "brand:wikidata": "Q151954",
      "brand:wikipedia": "en:Lidl",
      "name": "Lidl",
      "shop": "supermarket",
      "wheelchair": "yes"
    }
  },
  {
    "type": "node",
    "id": 1992811269,
    "lat": 43.5726877,
    "lon": -5.9255185,
    "tags": {
      "name": "SuperCash",
      "shop": "supermarket",
      "wheelchair": "yes"
    }
  },
  {
    "type": "node",
    "id": 2006604862,
    "lat": 43.364391,
    "lon": -5.8521447,
    "tags": {
      "addr:city": "Oviedo",
      "addr:housenumber": "15",
      "addr:postcode": "33003",
      "addr:street": "Calle Uría / Cai Uría",
      "name": "Supermercado El Corte Inglés",
      "shop": "supermarket"
    }
  },
  {
    "type": "node",
    "id": 2006628534,
    "lat": 43.3509309,
    "lon": -5.1295983,
    "tags": {
      "addr:city": "Cangas de Onís / Cangues d'Onís",
      "brand": "Alimerka",
      "brand:wikidata": "Q16482738",
      "brand:wikipedia": "es:Alimerka",
      "check_date": "2025-08-23",
      "check_date:opening_hours": "2025-08-23",
      "name": "Alimerka",
      "opening_hours:signed": "no",
      "shop": "supermarket"
    }
  },
  {
    "type": "node",
    "id": 2063103414,
    "lat": 43.4636022,
    "lon": -5.0576947,
    "tags": {
      "name": "Supermercados La Plaza",
      "shop": "supermarket",
      "wheelchair": "limited"
    }
  },
  {
    "type": "node",
    "id": 2184619595,
    "lat": 43.3449428,
    "lon": -5.3620586,
    "tags": {
      "addr:city": "Infiesto / L'Infiestu",
      "brand": "Alimerka",
      "brand:wikidata": "Q16482738",
      "brand:wikipedia": "es:Alimerka",
      "name": "Alimerka",
      "shop": "supermarket"
    }
  },
  {
    "type": "node",
    "id": 2184619623,
    "lat": 43.3473786,
    "lon": -5.3624716,
    "tags": {
      "addr:city": "Infiesto / L'Infiestu",
      "brand": "Alcampo",
      "brand:wikidata": "Q2832081",
      "name": "Alcampo",
      "shop": "supermarket"
    }
  },
  {
    "type": "node",
    "id": 2267748038,
    "lat": 43.1716059,
    "lon": -6.5463055,
    "tags": {
      "brand": "Alimerka",
      "brand:wikidata": "Q16482738",
      "brand:wikipedia": "es:Alimerka",
      "name": "Alimerka",
      "shop": "supermarket"
    }
  },
  {
    "type": "node",
    "id": 2267748039,
    "lat": 43.1713933,
    "lon": -6.5463505,
    "tags": {
      "name": "Centro Comercial El Pando",
      "shop": "supermarket"
    }
  },
  {
    "type": "node",
    "id": 2279489016,
    "lat": 43.1621307,
    "lon": -6.096246,
    "tags": {
      "name": "Autoservicio Lucky",
      "shop": "supermarket"
    }
  },
  {
    "type": "node",
    "id": 2288416288,
    "lat": 43.4850502,
    "lon": -5.2724559,
    "tags": {
      "addr:city": "Colunga",
      "name": "Plaza de Abastos",
      "shop": "supermarket"
    }
  },
  {
    "type": "node",
    "id": 2295799094,
    "lat": 43.4246437,
    "lon": -4.8630304,
    "tags": {
      "addr:city": "Posada de Llanes",
      "brand": "Alimerka",
      "brand:wikidata": "Q16482738",
      "brand:wikipedia": "es:Alimerka",
      "name": "Alimerka",
      "shop": "supermarket"
    }
  },
  {
    "type": "node",
    "id": 2298367896,
    "lat": 43.3802961,
    "lon": -5.7893742,
    "tags": {
      "name": "Crivencar",
      "shop": "supermarket"
    }
  },
  {
    "type": "node",
    "id": 2306549926,
    "lat": 43.3851724,
    "lon": -5.7018118,
    "tags": {
      "brand": "La Plaza de DIA",
      "brand:wikidata": "Q58904673",
      "name": "La Plaza de DIA",
      "shop": "supermarket"
    }
  },
  {
    "type": "node",
    "id": 2309697375,
    "lat": 43.5205489,
    "lon": -5.674608,
    "tags": {
      "addr:city": "Gijón",
      "brand": "Alimerka",
      "brand:wikidata": "Q16482738",
      "brand:wikipedia": "es:Alimerka",
      "name": "Alimerka",
      "shop": "supermarket",
      "wheelchair": "yes"
    }
  },
  {
    "type": "node",
    "id": 2353294592,
    "lat": 43.3658195,
    "lon": -5.8464376,
    "tags": {
      "addr:city": "Oviedo",
      "addr:street": "Calle Foncalada",
      "brand": "Alimerka",
      "brand:wikidata": "Q16482738",
      "brand:wikipedia": "es:Alimerka",
      "check_date": "2023-05-10",
      "name": "Alimerka",
      "opening_hours": "Mo-Sa 09:30-21:30",
      "shop": "supermarket"
    }
  },
  {
    "type": "node",
    "id": 2353295795,
    "lat": 43.364468,
    "lon": -5.8470576,
    "tags": {
      "brand": "masymas",
      "brand:wikidata": "Q6135987",
      "brand:wikipedia": "es:Supermercados Masymas",
      "check_date:opening_hours": "2022-03-23",
      "name": "masymas",
      "opening_hours": "Mo-Sa 09:00-21:30",
      "operator": "Hijos de Luis Rodríguez, S.A.",
      "operator:wikidata": "Q111520108",
      "shop": "supermarket"
    }
  },
  {
    "type": "node",
    "id": 2353314541,
    "lat": 43.3448897,
    "lon": -5.9722733,
    "tags": {
      "brand": "Dia",
      "brand:wikidata": "Q925132",
      "name": "Dia",
      "shop": "supermarket"
    }
  },
  {
    "type": "node",
    "id": 2353406365,
    "lat": 43.5372304,
    "lon": -6.7246772,
    "tags": {
      "addr:city": "Navia",
      "brand": "Alimerka",
      "brand:wikidata": "Q16482738",
      "brand:wikipedia": "es:Alimerka",
      "check_date": "2025-03-04",
      "check_date:opening_hours": "2025-03-04",
      "internet_access": "wlan",
      "internet_access:fee": "no",
      "name": "Alimerka",
      "opening_hours": "Mo-Sa 09:00-21:30",
      "shop": "supermarket",
      "wheelchair": "yes"
    }
  },
  {
    "type": "node",
    "id": 2353407640,
    "lat": 43.5448568,
    "lon": -6.7213083,
    "tags": {
      "name": "Familia",
      "shop": "supermarket"
    }
  },
  {
    "type": "node",
    "id": 2353465759,
    "lat": 43.3706388,
    "lon": -5.8393285,
    "tags": {
      "addr:city": "Oviedo",
      "addr:street": "Aureliano San Román",
      "brand": "masymas",
      "brand:wikidata": "Q6135987",
      "brand:wikipedia": "es:Supermercados Masymas",
      "name": "masymas",
      "opening_hours": "Mo-Sa 09:00-21:30",
      "operator": "Hijos de Luis Rodríguez, S.A.",
      "operator:wikidata": "Q111520108",
      "shop": "supermarket",
      "wheelchair": "yes"
    }
  },
  {
    "type": "node",
    "id": 2361447613,
    "lat": 43.3571855,
    "lon": -5.8400675,
    "tags": {
      "addr:city": "Oviedo",
      "brand": "masymas",
      "brand:wikidata": "Q6135987",
      "brand:wikipedia": "es:Supermercados Masymas",
      "name": "masymas",
      "operator": "Hijos de Luis Rodríguez, S.A.",
      "operator:wikidata": "Q111520108",
      "shop": "supermarket"
    }
  },
  {
    "type": "node",
    "id": 2361463016,
    "lat": 43.3659669,
    "lon": -5.8509076,
    "tags": {
      "addr:city": "Oviedo",
      "addr:postcode": "33002",
      "addr:street": "Calle Nueve de Mayo",
      "brand": "Alimerka",
      "brand:wikidata": "Q16482738",
      "brand:wikipedia": "es:Alimerka",
      "check_date": "2023-05-26",
      "name": "Alimerka",
      "shop": "supermarket"
    }
  },
  {
    "type": "node",
    "id": 2409000263,
    "lat": 43.3708065,
    "lon": -5.8366385,
    "tags": {
      "addr:city": "Oviedo",
      "brand": "Alimerka",
      "brand:wikidata": "Q16482738",
      "brand:wikipedia": "es:Alimerka",
      "check_date": "2025-12-10",
      "name": "Alimerka",
      "shop": "supermarket"
    }
  },
  {
    "type": "node",
    "id": 2410361875,
    "lat": 43.3646207,
    "lon": -5.8645909,
    "tags": {
      "addr:street": "CL ARGAÑOSA, 62. Oviedo. Asturias. 33013.",
      "brand": "Covirán",
      "brand:wikidata": "Q61070539",
      "diet:halal": "no",
      "diet:kosher": "no",
      "name": "Covirán",
      "name:es": "Covirán",
      "name:pt": "Coviran",
      "payment:credit_cards": "yes",
      "payment:debit_cards": "yes",
      "shop": "supermarket",
      "wheelchair": "yes"
    }
  },
  {
    "type": "node",
    "id": 2424239624,
    "lat": 43.3828358,
    "lon": -4.3990459,
    "tags": {
      "addr:city": "San Vicente de la Barquera",
      "addr:housenumber": "3",
      "addr:postcode": "39540",
      "addr:street": "Travesía Juan de Herrera",
      "brand": "Lupa",
      "brand:wikidata": "Q58044048",
      "name": "Lupa",
      "opening_hours": "Mo-Sa 09:00-15:00; Mo-Sa 17:00-21:30",
      "shop": "supermarket",
      "website": "https://lupa.com/"
    }
  },
  {
    "type": "node",
    "id": 2429204190,
    "lat": 43.1601821,
    "lon": -5.8279825,
    "tags": {
      "addr:city": "Pola de Lena",
      "brand": "Alimerka",
      "brand:wikidata": "Q16482738",
      "brand:wikipedia": "es:Alimerka",
      "name": "Alimerka",
      "shop": "supermarket"
    }
  },
  {
    "type": "node",
    "id": 2429214116,
    "lat": 43.1537121,
    "lon": -5.8270454,
    "tags": {
      "brand": "Alimerka",
      "brand:wikidata": "Q16482738",
      "brand:wikipedia": "es:Alimerka",
      "name": "Alimerka",
      "shop": "supermarket"
    }
  },
  {
    "type": "node",
    "id": 2429301682,
    "lat": 43.6135707,
    "lon": -5.7957882,
    "tags": {
      "addr:city": "Luanco / Lluanco",
      "brand": "Supercor",
      "brand:wikidata": "Q6135841",
      "brand:wikipedia": "es:Supercor",
      "name": "Supercor",
      "shop": "supermarket"
    }
  },
  {
    "type": "node",
    "id": 2452567255,
    "lat": 43.3689667,
    "lon": -5.8677094,
    "tags": {
      "addr:housename": "Plaza Gabino Díaz Merchan 3-4-5",
      "brand": "masymas",
      "brand:wikidata": "Q6135987",
      "brand:wikipedia": "es:Supermercados Masymas",
      "name": "masymas",
      "operator": "Hijos de Luis Rodríguez, S.A.",
      "operator:wikidata": "Q111520108",
      "shop": "supermarket"
    }
  },
  {
    "type": "node",
    "id": 2452572976,
    "lat": 43.3674993,
    "lon": -5.8672645,
    "tags": {
      "addr:city": "Uviéu/Oviedo",
      "addr:housenumber": "5-7",
      "addr:postcode": "33012",
      "addr:street": "Calle Aurora de Albornoz",
      "brand": "Alimerka",
      "brand:wikidata": "Q16482738",
      "brand:wikipedia": "es:Alimerka",
      "name": "Alimerka",
      "phone": "+34 985 24 12 66",
      "shop": "supermarket"
    }
  },
  {
    "type": "node",
    "id": 2452686336,
    "lat": 43.4280393,
    "lon": -6.8198078,
    "tags": {
      "addr:city": "Boal/Bual",
      "addr:postcode": "33720",
      "addr:street": "Avenida de Asturias",
      "name": "minymas",
      "shop": "supermarket"
    }
  },
  {
    "type": "node",
    "id": 2452686479,
    "lat": 43.4276023,
    "lon": -6.8201892,
    "tags": {
      "addr:city": "Boal/Bual",
      "addr:postcode": "33720",
      "addr:street": "Calle Melquiades Álvarez",
      "name": "El Boal Nuevo",
      "phone": "+34 985620628",
      "shop": "supermarket"
    }
  },
  {
    "type": "node",
    "id": 2514868048,
    "lat": 43.367135,
    "lon": -5.8665871,
    "tags": {
      "addr:city": "Oviedo/Uviéu",
      "brand": "Supercor",
      "brand:wikidata": "Q6135841",
      "brand:wikipedia": "es:Supercor",
      "name": "Supercor",
      "opening_hours": "Mo-Sa 09:00-21:30",
      "shop": "supermarket"
    }
  },
  {
    "type": "node",
    "id": 2524302099,
    "lat": 43.3508496,
    "lon": -5.1285298,
    "tags": {
      "addr:city": "Cangas de Onís / Cangues d'Onís",
      "check_date:opening_hours": "2025-08-23",
      "name": "Asturias Encantada",
      "opening_hours:signed": "no",
      "shop": "supermarket"
    }
  },
  {
    "type": "node",
    "id": 2558943233,
    "lat": 43.3621022,
    "lon": -5.8635421,
    "tags": {
      "addr:city": "Oviedo/Uviéu",
      "addr:postcode": "33013",
      "addr:street": "Calle Marcos Peña Royo",
      "brand": "masymas",
      "brand:wikidata": "Q6135987",
      "name": "masymas",
      "nohousenumber": "yes",
      "opening_hours": "Mo-Sa 09:00-21:00",
      "operator": "Hijos de Luis Rodríguez, S.A.",
      "operator:wikidata": "Q111520108",
      "phone": "+34 985257039",
      "shop": "supermarket"
    }
  },
  {
    "type": "node",
    "id": 2586127398,
    "lat": 43.6162923,
    "lon": -5.7932174,
    "tags": {
      "addr:city": "Lluanco/Luanco",
      "addr:street": "Calle Valeriano Fernández Viña",
      "brand": "Alimerka",
      "brand:wikidata": "Q16482738",
      "brand:wikipedia": "es:Alimerka",
      "name": "Alimerka",
      "shop": "supermarket"
    }
  },
  {
    "type": "node",
    "id": 2587435138,
    "lat": 43.438787,
    "lon": -5.850604,
    "tags": {
      "addr:city": "Posada de Llanera",
      "addr:street": "Avenida de Oviedo",
      "brand": "Alimerka",
      "brand:wikidata": "Q16482738",
      "brand:wikipedia": "es:Alimerka",
      "name": "Alimerka",
      "shop": "supermarket"
    }
  },
  {
    "type": "node",
    "id": 2595113518,
    "lat": 43.2499086,
    "lon": -5.5661588,
    "tags": {
      "brand": "Alimerka",
      "brand:wikidata": "Q16482738",
      "brand:wikipedia": "es:Alimerka",
      "name": "Alimerka",
      "shop": "supermarket"
    }
  },
  {
    "type": "node",
    "id": 2675724692,
    "lat": 43.5290569,
    "lon": -5.6459409,
    "tags": {
      "name": "Autoservicios Familia",
      "phone": "+34 985331947;+34 944050514",
      "shop": "supermarket",
      "website": "https://www.familiaonline.es/"
    }
  },
  {
    "type": "node",
    "id": 2678008779,
    "lat": 42.9738125,
    "lon": -4.9248905,
    "tags": {
      "check_date": "2025-04-18",
      "name": "Ultramarinos",
      "opening_hours": "Mo-Sa 10:00-14:00, 17:00-20:00",
      "shop": "supermarket"
    }
  },
  {
    "type": "node",
    "id": 2684511271,
    "lat": 43.5877889,
    "lon": -5.7681528,
    "tags": {
      "addr:city": "Candás",
      "addr:postcode": "33430",
      "addr:street": "Cai Reina María Cristina",
      "brand": "Alimerka",
      "brand:wikidata": "Q16482738",
      "brand:wikipedia": "es:Alimerka",
      "name": "Alimerka",
      "opening_hours": "Mo-Sa 09:00-21:30",
      "operator": "Alimerka S.A.",
      "phone": "+34 985 87 18 51",
      "shop": "supermarket",
      "website": "https://www.alimerka.es/"
    }
  },
  {
    "type": "node",
    "id": 2689112642,
    "lat": 43.5387857,
    "lon": -5.6514909,
    "tags": {
      "addr:city": "Gijón",
      "brand": "Lidl",
      "brand:website": "https://www.lidl.es",
      "brand:wikidata": "Q151954",
      "brand:wikipedia": "en:Lidl",
      "name": "Lidl",
      "shop": "supermarket",
      "wheelchair": "yes"
    }
  },
  {
    "type": "node",
    "id": 2716300225,
    "lat": 43.6145642,
    "lon": -5.792968,
    "tags": {
      "addr:city": "Luanco / Lluanco",
      "name": "Minymas tiendas",
      "shop": "supermarket"
    }
  },
  {
    "type": "node",
    "id": 2728502538,
    "lat": 43.5325777,
    "lon": -5.6722473,
    "tags": {
      "brand": "Alimerka",
      "brand:wikidata": "Q16482738",
      "brand:wikipedia": "es:Alimerka",
      "name": "Alimerka",
      "shop": "supermarket"
    }
  },
  {
    "type": "node",
    "id": 2728502539,
    "lat": 43.5336736,
    "lon": -5.6493666,
    "tags": {
      "addr:city": "Gijón",
      "addr:street": "Calle Calderón de la Barca",
      "brand": "Alimerka",
      "brand:wikidata": "Q16482738",
      "brand:wikipedia": "es:Alimerka",
      "layer": "-1",
      "level": "-1",
      "name": "Alimerka",
      "shop": "supermarket"
    }
  },
  {
    "type": "node",
    "id": 2728837200,
    "lat": 43.1589858,
    "lon": -5.9733499,
    "tags": {
      "addr:city": "Bárzana",
      "addr:street": "Carretera General",
      "brand": "Covirán",
      "brand:website": "https://www.coviran.es",
      "brand:wikidata": "Q61070539",
      "brand:wikipedia": "es:Covirán",
      "name": "Covirán",
      "name:es": "Covirán",
      "name:pt": "Coviran",
      "shop": "supermarket"
    }
  },
  {
    "type": "node",
    "id": 2731452668,
    "lat": 43.3737678,
    "lon": -5.8354221,
    "tags": {
      "addr:city": "Oviedo",
      "addr:postcode": "33011",
      "addr:street": "Calle Bermúdez de Castro",
      "brand": "Alimerka",
      "brand:wikidata": "Q16482738",
      "brand:wikipedia": "es:Alimerka",
      "name": "Alimerka",
      "operator": "Alimerka",
      "shop": "supermarket"
    }
  },
  {
    "type": "node",
    "id": 2746953150,
    "lat": 43.3717577,
    "lon": -5.8368678,
    "tags": {
      "addr:city": "Oviedo",
      "addr:postcode": "33011",
      "addr:street": "Calle Bermúdez de Castro",
      "brand": "Alcampo",
      "brand:wikidata": "Q2832081",
      "name": "Alcampo",
      "shop": "supermarket"
    }
  },
  {
    "type": "node",
    "id": 2751248190,
    "lat": 43.5378755,
    "lon": -5.6720392,
    "tags": {
      "addr:city": "Gijón",
      "brand": "Mercadona",
      "brand:wikidata": "Q377705",
      "brand:wikipedia": "es:Mercadona",
      "name": "Mercadona",
      "opening_hours": "Mo-Sa 09:15-21:30",
      "shop": "supermarket",
      "website": "https://www.mercadona.es"
    }
  },
  {
    "type": "node",
    "id": 2752735263,
    "lat": 43.1564882,
    "lon": -5.8278214,
    "tags": {
      "addr:city": "Pola de Lena",
      "brand": "Covirán",
      "brand:website": "https://www.coviran.es",
      "brand:wikidata": "Q61070539",
      "brand:wikipedia": "es:Covirán",
      "name": "Covirán",
      "name:es": "Covirán",
      "name:pt": "Coviran",
      "shop": "supermarket"
    }
  },
  {
    "type": "node",
    "id": 2761386279,
    "lat": 43.254828,
    "lon": -5.7793383,
    "tags": {
      "brand": "Alimerka",
      "brand:wikidata": "Q16482738",
      "brand:wikipedia": "es:Alimerka",
      "name": "Alimerka",
      "opening_hours": "Mo-Sa 09:00-21:30",
      "shop": "supermarket"
    }
  },
  {
    "type": "node",
    "id": 2797844401,
    "lat": 43.4086204,
    "lon": -6.2597638,
    "tags": {
      "brand": "Dia",
      "brand:wikidata": "Q925132",
      "brand:wikipedia": "es:DIA (supermercados)",
      "name": "Dia",
      "shop": "supermarket"
    }
  },
  {
    "type": "node",
    "id": 2809460246,
    "lat": 43.4848172,
    "lon": -5.2724713,
    "tags": {
      "name": "Alimentación El Sueve",
      "shop": "supermarket"
    }
  },
  {
    "type": "node",
    "id": 2855703227,
    "lat": 43.408335,
    "lon": -6.2598628,
    "tags": {
      "addr:city": "Salas",
      "brand": "Dia",
      "brand:wikidata": "Q925132",
      "brand:wikipedia": "es:DIA (supermercados)",
      "name": "Dia",
      "shop": "supermarket"
    }
  },
  {
    "type": "node",
    "id": 2855703238,
    "lat": 43.4079685,
    "lon": -6.2592621,
    "tags": {
      "addr:city": "Salas",
      "brand": "Alimerka",
      "brand:wikidata": "Q16482738",
      "brand:wikipedia": "es:Alimerka",
      "name": "Alimerka",
      "opening_hours": "Mo-Sa 09:00-21:30",
      "shop": "supermarket"
    }
  },
  {
    "type": "node",
    "id": 2879288378,
    "lat": 43.4618469,
    "lon": -5.0585331,
    "tags": {
      "name": "Angelica",
      "shop": "supermarket"
    }
  },
  {
    "type": "node",
    "id": 2896320052,
    "lat": 43.3708148,
    "lon": -5.842119,
    "tags": {
      "addr:city": "Uviéu",
      "addr:postcode": "33011",
      "addr:street": "Calle Saturnino Fresno",
      "brand": "Alimerka",
      "brand:wikidata": "Q16482738",
      "brand:wikipedia": "es:Alimerka",
      "check_date": "2024-06-19",
      "name": "Alimerka",
      "shop": "supermarket"
    }
  },
  {
    "type": "node",
    "id": 2896320053,
    "lat": 43.3690429,
    "lon": -5.844842,
    "tags": {
      "addr:city": "Oviedo-Uviéu",
      "addr:housenumber": "5",
      "addr:postcode": "33011",
      "addr:street": "Calle Benjamín Ortiz",
      "brand": "Alimerka",
      "brand:wikidata": "Q16482738",
      "brand:wikipedia": "es:Alimerka",
      "check_date": "2023-05-04",
      "name": "Alimerka",
      "shop": "supermarket"
    }
  },
  {
    "type": "node",
    "id": 2901446752,
    "lat": 43.1249361,
    "lon": -7.0668678,
    "tags": {
      "brand": "Dia",
      "brand:wikidata": "Q925132",
      "brand:wikipedia": "es:DIA (supermercados)",
      "name": "Dia",
      "shop": "supermarket"
    }
  },
  {
    "type": "node",
    "id": 2952103408,
    "lat": 43.2715185,
    "lon": -6.6118482,
    "tags": {
      "addr:city": "Pola de Allande / La Puela",
      "brand": "Covirán",
      "brand:website": "https://www.coviran.es",
      "brand:wikidata": "Q61070539",
      "brand:wikipedia": "es:Covirán",
      "name": "Covirán",
      "name:es": "Covirán",
      "name:pt": "Coviran",
      "shop": "supermarket"
    }
  },
  {
    "type": "node",
    "id": 2967792155,
    "lat": 43.3845651,
    "lon": -5.7047929,
    "tags": {
      "name": "Silvia",
      "shop": "supermarket"
    }
  },
  {
    "type": "node",
    "id": 3006464301,
    "lat": 43.2802673,
    "lon": -5.880674,
    "tags": {
      "name": "Minymas",
      "shop": "supermarket"
    }
  },
  {
    "type": "node",
    "id": 3006519120,
    "lat": 43.2517276,
    "lon": -5.872474,
    "tags": {
      "addr:city": "La Foz",
      "name": "Ca' Sariego",
      "shop": "supermarket"
    }
  },
  {
    "type": "node",
    "id": 3014329338,
    "lat": 43.2531398,
    "lon": -5.7767542,
    "tags": {
      "brand": "Dia",
      "brand:wikidata": "Q925132",
      "brand:wikipedia": "es:DIA (supermercados)",
      "name": "Dia",
      "shop": "supermarket"
    }
  },
  {
    "type": "node",
    "id": 3029483133,
    "lat": 43.5592416,
    "lon": -6.1502071,
    "tags": {
      "addr:city": "Cudillero / Cuideiru",
      "addr:postcode": "33150",
      "addr:street": "Calle Juan Antonio Bravo",
      "brand": "Alimerka",
      "brand:wikidata": "Q16482738",
      "brand:wikipedia": "es:Alimerka",
      "name": "Alimerka",
      "shop": "supermarket"
    }
  },
  {
    "type": "node",
    "id": 3035744153,
    "lat": 43.3635008,
    "lon": -5.8334982,
    "tags": {
      "addr:city": "oviedo",
      "addr:housenumber": "11",
      "addr:postcode": "33010",
      "addr:street": "Calle López del Vallado",
      "brand": "Alimerka",
      "brand:wikidata": "Q16482738",
      "brand:wikipedia": "es:Alimerka",
      "name": "Alimerka",
      "opening_hours": "Mo-Sa 09:00-21:30",
      "operator": "Alimerka S.A.U.",
      "phone": "+34 984 84 90 09",
      "shop": "supermarket",
      "website": "https://www.alimerka.es"
    }
  },
  {
    "type": "node",
    "id": 3045383991,
    "lat": 43.2511282,
    "lon": -5.7770304,
    "tags": {
      "brand": "Dia",
      "brand:wikidata": "Q925132",
      "name": "Dia",
      "opening_hours": "Mo-Sa 09:00-21:30",
      "shop": "supermarket"
    }
  },
  {
    "type": "node",
    "id": 3048206555,
    "lat": 43.2518543,
    "lon": -5.7730978,
    "tags": {
      "brand": "Alimerka",
      "brand:wikidata": "Q16482738",
      "brand:wikipedia": "es:Alimerka",
      "check_date": "2025-09-05",
      "name": "Alimerka",
      "shop": "supermarket"
    }
  },
  {
    "type": "node",
    "id": 3052356557,
    "lat": 43.3541449,
    "lon": -5.843512,
    "tags": {
      "addr:city": "Oviedo",
      "addr:housenumber": "3",
      "addr:postcode": "33008",
      "addr:street": "Calle San Lázaro",
      "brand": "Covirán",
      "brand:website": "https://www.coviran.es",
      "brand:wikidata": "Q61070539",
      "brand:wikipedia": "es:Covirán",
      "name": "Covirán",
      "name:es": "Covirán",
      "name:pt": "Coviran",
      "phone": "+34 902 453453",
      "shop": "supermarket"
    }
  },
  {
    "type": "node",
    "id": 3075305046,
    "lat": 43.3014779,
    "lon": -4.8138285,
    "tags": {
      "addr:city": "Arenas de Cabrales",
      "brand": "BM",
      "brand:wikidata": "Q62073462",
      "brand:wikipedia": "es:BM Supermercados",
      "contact:website": "https://www.bmsupermercados.es/tienda-6205.htm",
      "delivery": "yes",
      "internet_access": "wlan",
      "internet_access:fee": "no",
      "internet_access:ssid": "BM-WIFI",
      "name": "BM",
      "opening_hours": "Mo-Sa 09:30-21:00",
      "phone": "+34 985 40 40 24",
      "shop": "supermarket"
    }
  },
  {
    "type": "node",
    "id": 3101680066,
    "lat": 43.4805597,
    "lon": -5.4340669,
    "tags": {
      "addr:city": "Villaviciosa",
      "addr:housenumber": "9",
      "addr:postcode": "33300",
      "addr:street": "Calle de Balbín Busto",
      "name": "Area Natural-Herbolario",
      "phone": "+34 985098722",
      "shop": "supermarket",
      "wheelchair": "limited"
    }
  },
  {
    "type": "node",
    "id": 3151840774,
    "lat": 43.4112148,
    "lon": -6.1583438,
    "tags": {
      "name": "minymas",
      "opening_hours": "Mo-Sa 09:00-14:00,16:00-20:00;Su 10:00-14:00",
      "shop": "supermarket"
    }
  },
  {
    "type": "node",
    "id": 3153313306,
    "lat": 43.3945941,
    "lon": -6.3363837,
    "tags": {
      "brand": "Covirán",
      "brand:website": "https://www.coviran.es",
      "brand:wikidata": "Q61070539",
      "brand:wikipedia": "es:Covirán",
      "name": "Covirán",
      "name:es": "Covirán",
      "name:pt": "Coviran",
      "opening_hours": "Mo-Sa 09:00-20:30",
      "shop": "supermarket"
    }
  },
  {
    "type": "node",
    "id": 3153437185,
    "lat": 43.3939323,
    "lon": -6.338354,
    "tags": {
      "name": "El Candano",
      "phone": "+34 985837017",
      "shop": "supermarket"
    }
  },
  {
    "type": "node",
    "id": 3155235336,
    "lat": 43.2185908,
    "lon": -6.8743071,
    "tags": {
      "name": "Otero y Otero",
      "shop": "supermarket"
    }
  },
  {
    "type": "node",
    "id": 3369189653,
    "lat": 43.1606477,
    "lon": -4.6116265,
    "tags": {
      "brand": "Dia",
      "brand:wikidata": "Q925132",
      "brand:wikipedia": "es:DIA (supermercados)",
      "name": "Dia",
      "shop": "supermarket"
    }
  },
  {
    "type": "node",
    "id": 3405194928,
    "lat": 43.5367807,
    "lon": -5.647484,
    "tags": {
      "name": "Best Home",
      "opening_hours": "Mo-Sa 10:00-15:00,16:30-20:30",
      "shop": "supermarket"
    }
  },
  {
    "type": "node",
    "id": 3421226593,
    "lat": 43.3928838,
    "lon": -5.6587442,
    "tags": {
      "addr:city": "Pola de Siero",
      "addr:street": "Calle Florencio Rodríguez",
      "name": "El Mercadín de La Pola",
      "shop": "supermarket"
    }
  },
  {
    "type": "node",
    "id": 3423544319,
    "lat": 43.5394437,
    "lon": -5.6584618,
    "tags": {
      "addr:city": "Gijón",
      "addr:housenumber": "3",
      "addr:postcode": "33201",
      "addr:street": "Calle de Covadonga",
      "brand": "Masymas",
      "brand:wikidata": "Q6135987",
      "brand:wikipedia": "es:Supermercados Masymas",
      "name": "Masymas",
      "operator": "Masymas",
      "shop": "supermarket"
    }
  },
  {
    "type": "node",
    "id": 3426510918,
    "lat": 43.3915416,
    "lon": -5.6601535,
    "tags": {
      "addr:city": "Pola de Siero/La Pola Siero",
      "brand": "Alimerka",
      "brand:wikidata": "Q16482738",
      "brand:wikipedia": "es:Alimerka",
      "name": "Alimerka",
      "shop": "supermarket"
    }
  },
  {
    "type": "node",
    "id": 3428800893,
    "lat": 43.5366106,
    "lon": -5.6603491,
    "tags": {
      "addr:city": "Gijón",
      "addr:street": "Calle 17 de Agosto",
      "brand": "Alimerka",
      "brand:wikidata": "Q16482738",
      "brand:wikipedia": "es:Alimerka",
      "name": "Alimerka",
      "opening_hours": "Mo-Sa 09:00-21:30",
      "shop": "supermarket",
      "wheelchair": "yes"
    }
  },
  {
    "type": "node",
    "id": 3439430854,
    "lat": 43.3833186,
    "lon": -4.4009455,
    "tags": {
      "addr:city": "San Vicente de la Barquera",
      "addr:street": "Calle de Mata Linares",
      "name": "Minymas",
      "opening_hours": "Mo-Sa 09:00-14:00,17:00-21:00",
      "operator": "Minymas",
      "shop": "supermarket"
    }
  },
  {
    "type": "node",
    "id": 3445691204,
    "lat": 43.3927273,
    "lon": -5.6608092,
    "tags": {
      "old_name": "Milar Abel",
      "shop": "supermarket"
    }
  },
  {
    "type": "node",
    "id": 3459249507,
    "lat": 43.3703364,
    "lon": -5.8535195,
    "tags": {
      "brand": "masymas",
      "brand:wikidata": "Q6135987",
      "brand:wikipedia": "es:Supermercados Masymas",
      "name": "masymas",
      "opening_hours": "Mo-Sa 09:00-21:30",
      "operator": "Hijos de Luis Rodríguez, S.A.",
      "operator:wikidata": "Q111520108",
      "shop": "supermarket"
    }
  },
  {
    "type": "node",
    "id": 3578883723,
    "lat": 43.4397043,
    "lon": -5.8512199,
    "tags": {
      "brand": "masymas",
      "brand:wikidata": "Q6135987",
      "brand:wikipedia": "es:Supermercados Masymas",
      "name": "masymas",
      "operator": "Hijos de Luis Rodríguez, S.A.",
      "operator:wikidata": "Q111520108",
      "shop": "supermarket"
    }
  },
  {
    "type": "node",
    "id": 3652890725,
    "lat": 43.5615236,
    "lon": -5.9722114,
    "tags": {
      "brand": "Mercadona",
      "brand:wikidata": "Q377705",
      "brand:wikipedia": "en:Mercadona",
      "name": "Mercadona",
      "opening_hours": "Mo-Sa 09:00-21:30",
      "shop": "supermarket",
      "website": "https://www.mercadona.es"
    }
  },
  {
    "type": "node",
    "id": 3652890726,
    "lat": 43.5603686,
    "lon": -5.9761075,
    "tags": {
      "brand": "Covirán",
      "brand:website": "https://www.coviran.es",
      "brand:wikidata": "Q61070539",
      "brand:wikipedia": "es:Covirán",
      "name": "Covirán",
      "name:es": "Covirán",
      "name:pt": "Coviran",
      "shop": "supermarket"
    }
  },
  {
    "type": "node",
    "id": 3652897025,
    "lat": 43.5538133,
    "lon": -5.918956,
    "tags": {
      "brand": "Dia",
      "brand:wikidata": "Q925132",
      "brand:wikipedia": "es:DIA (supermercados)",
      "name": "Dia",
      "opening_hours": "Mo-Sa 09:00-21:30",
      "shop": "supermarket"
    }
  },
  {
    "type": "node",
    "id": 3674409178,
    "lat": 43.3751653,
    "lon": -4.5392787,
    "tags": {
      "addr:city": "Colombres",
      "brand": "Covirán",
      "brand:website": "https://www.coviran.es",
      "brand:wikidata": "Q61070539",
      "brand:wikipedia": "es:Covirán",
      "name": "Covirán",
      "name:es": "Covirán",
      "name:pt": "Coviran",
      "shop": "supermarket"
    }
  },
  {
    "type": "node",
    "id": 3674409180,
    "lat": 43.3744459,
    "lon": -4.5156,
    "tags": {
      "brand": "Lupa",
      "brand:wikidata": "Q58044048",
      "diet:halal": "no",
      "diet:kosher": "no",
      "name": "Lupa",
      "opening_hours": "Mo-Sa 09:00-14:30,16:30-21:00; Su 09:30-14:30",
      "shop": "supermarket"
    }
  },
  {
    "type": "node",
    "id": 3674966127,
    "lat": 43.4117833,
    "lon": -4.8011994,
    "tags": {
      "name": "La Piza",
      "shop": "supermarket"
    }
  },
  {
    "type": "node",
    "id": 3677474613,
    "lat": 43.4792776,
    "lon": -5.4363017,
    "tags": {
      "addr:city": "Villaviciosa",
      "brand": "Alimerka",
      "brand:wikidata": "Q16482738",
      "brand:wikipedia": "es:Alimerka",
      "name": "Alimerka",
      "shop": "supermarket"
    }
  },
  {
    "type": "node",
    "id": 3701908520,
    "lat": 43.4845522,
    "lon": -5.4341947,
    "tags": {
      "addr:city": "Villaviciosa",
      "addr:postcode": "33300",
      "addr:street": "Calle Alejandro Casona",
      "brand": "Spar",
      "brand:wikidata": "Q610492",
      "brand:wikipedia": "es:Mercadona",
      "name": "Spar",
      "shop": "supermarket",
      "website": "https://www.mercadona.es"
    }
  },
  {
    "type": "node",
    "id": 3701908521,
    "lat": 43.4839732,
    "lon": -5.4348281,
    "tags": {
      "addr:city": "Villaviciosa",
      "brand": "Alimerka",
      "brand:wikidata": "Q16482738",
      "brand:wikipedia": "es:Alimerka",
      "name": "Alimerka",
      "shop": "supermarket"
    }
  },
  {
    "type": "node",
    "id": 3713208287,
    "lat": 43.3329625,
    "lon": -6.4173715,
    "tags": {
      "addr:city": "Tineo",
      "brand": "Alimerka",
      "brand:wikidata": "Q16482738",
      "brand:wikipedia": "es:Alimerka",
      "name": "Alimerka",
      "opening_hours": "Mo-Sa 09:00-21:30",
      "operator": "Alimerka",
      "shop": "supermarket"
    }
  },
  {
    "type": "node",
    "id": 3714247513,
    "lat": 43.3913751,
    "lon": -5.6533733,
    "tags": {
      "name": "Minymas",
      "shop": "supermarket"
    }
  },
  {
    "type": "node",
    "id": 3738243673,
    "lat": 43.365205,
    "lon": -5.8695741,
    "tags": {
      "addr:city": "Oviedo/Uviéu",
      "addr:street": "Calle José María Martínez Cachero",
      "brand": "Dia",
      "brand:wikidata": "Q925132",
      "brand:wikipedia": "es:DIA (supermercados)",
      "name": "Dia",
      "shop": "supermarket"
    }
  },
  {
    "type": "node",
    "id": 3789428800,
    "lat": 43.538655,
    "lon": -5.6889914,
    "tags": {
      "addr:city": "Gijón",
      "brand": "Alimerka",
      "brand:wikidata": "Q16482738",
      "brand:wikipedia": "es:Alimerka",
      "name": "Alimerka",
      "operator": "Alimerka",
      "shop": "supermarket",
      "source": "PNOA;survey",
      "source:date": "2009",
      "wheelchair": "limited"
    }
  },
  {
    "type": "node",
    "id": 3793526857,
    "lat": 43.5434493,
    "lon": -6.5340142,
    "tags": {
      "brand": "La Plaza de DIA",
      "brand:wikidata": "Q58904673",
      "name": "La Plaza de DIA",
      "old_name": "El Árbol",
      "opening_hours": "Mo-Sa 09:00-21:30",
      "shop": "supermarket"
    }
  },
  {
    "type": "node",
    "id": 3797424363,
    "lat": 43.212864,
    "lon": -4.9048521,
    "tags": {
      "name": "El bolín",
      "shop": "supermarket"
    }
  },
  {
    "type": "node",
    "id": 3807667146,
    "lat": 43.5401507,
    "lon": -6.7240361,
    "tags": {
      "brand": "Dia",
      "brand:wikidata": "Q925132",
      "brand:wikipedia": "es:DIA (supermercados)",
      "name": "Dia",
      "shop": "supermarket"
    }
  },
  {
    "type": "node",
    "id": 3848931275,
    "lat": 43.5351257,
    "lon": -5.8921246,
    "tags": {
      "addr:city": "Los Campos",
      "addr:housenumber": "2",
      "addr:postcode": "33404",
      "addr:street": "Calle de el Castaño",
      "brand": "Mercadona",
      "brand:wikidata": "Q377705",
      "brand:wikipedia": "es:Mercadona",
      "name": "Mercadona",
      "opening_hours": "Mo-Sa 09:00-21:30",
      "shop": "supermarket",
      "website": "https://www.mercadona.es"
    }
  },
  {
    "type": "node",
    "id": 4054224083,
    "lat": 43.3918019,
    "lon": -5.6641756,
    "tags": {
      "brand": "Alcampo",
      "brand:wikidata": "Q2832081",
      "name": "Alcampo",
      "shop": "supermarket"
    }
  },
  {
    "type": "node",
    "id": 4054228568,
    "lat": 43.3921403,
    "lon": -5.6632766,
    "tags": {
      "brand": "masymas",
      "brand:wikidata": "Q6135987",
      "brand:wikipedia": "es:Supermercados Masymas",
      "name": "masymas",
      "operator": "Hijos de Luis Rodríguez, S.A.",
      "operator:wikidata": "Q111520108",
      "shop": "supermarket"
    }
  },
  {
    "type": "node",
    "id": 4131433374,
    "lat": 43.358859,
    "lon": -5.8587457,
    "tags": {
      "addr:city": "Oviedo/Uviéu",
      "brand": "Alimerka",
      "brand:wikidata": "Q16482738",
      "brand:wikipedia": "es:Alimerka",
      "check_date": "2025-04-15",
      "diet:halal": "no",
      "diet:kosher": "no",
      "name": "Alimerka",
      "shop": "supermarket",
      "wheelchair": "yes"
    }
  },
  {
    "type": "node",
    "id": 4147661876,
    "lat": 43.2933609,
    "lon": -5.6786787,
    "tags": {
      "brand": "Dia",
      "brand:wikidata": "Q925132",
      "brand:wikipedia": "es:DIA (supermercados)",
      "name": "Dia",
      "opening_hours": "Mo-Fr 09:30-14:00, 17:30-20:00; Sa 09:30-14:00",
      "shop": "supermarket"
    }
  },
  {
    "type": "node",
    "id": 4149792864,
    "lat": 43.2929066,
    "lon": -5.6774135,
    "tags": {
      "name": "Congelados Bencar",
      "shop": "supermarket",
      "wheelchair": "limited"
    }
  },
  {
    "type": "node",
    "id": 4149792865,
    "lat": 43.2924941,
    "lon": -5.67779,
    "tags": {
      "name": "El Arco",
      "shop": "supermarket"
    }
  },
  {
    "type": "node",
    "id": 4173157455,
    "lat": 43.3561727,
    "lon": -5.8535782,
    "tags": {
      "addr:city": "Oviedo",
      "addr:housenumber": "55",
      "addr:postcode": "33007",
      "addr:street": "Calle González Besada",
      "brand": "Alimerka",
      "brand:wikidata": "Q16482738",
      "brand:wikipedia": "es:Alimerka",
      "check_date:opening_hours": "2025-08-09",
      "diet:halal": "no",
      "diet:kosher": "no",
      "name": "Alimerka",
      "opening_hours": "Mo-Sa 09:00-21:30; Su off",
      "shop": "supermarket",
      "wheelchair": "yes"
    }
  },
  {
    "type": "node",
    "id": 4209730256,
    "lat": 43.3902488,
    "lon": -5.6593928,
    "tags": {
      "addr:city": "Pola de Siero/La Pola Siero",
      "name": "Autoservicios Familia",
      "phone": "+34 985723711;+34 944050514",
      "shop": "supermarket",
      "website": "https://www.familiaonline.es/"
    }
  },
  {
    "type": "node",
    "id": 4212964425,
    "lat": 43.2971867,
    "lon": -5.6837152,
    "tags": {
      "brand": "Alimerka",
      "brand:wikidata": "Q16482738",
      "brand:wikipedia": "es:Alimerka",
      "name": "Alimerka",
      "opening_hours": "Mo-Sa 09:00-21:30",
      "shop": "supermarket",
      "wheelchair": "limited"
    }
  },
  {
    "type": "node",
    "id": 4226829845,
    "lat": 43.5305166,
    "lon": -5.6603572,
    "tags": {
      "addr:city": "Gijón",
      "addr:housenumber": "15",
      "addr:postcode": "33209",
      "addr:street": "Calle Poeta Alfonso Camín",
      "brand": "Dia",
      "brand:wikidata": "Q925132",
      "brand:wikipedia": "es:DIA (supermercados)",
      "name": "Dia",
      "shop": "supermarket"
    }
  },
  {
    "type": "node",
    "id": 4242449879,
    "lat": 43.3928893,
    "lon": -5.6589664,
    "tags": {
      "name": "Panagallega",
      "shop": "supermarket"
    }
  },
  {
    "type": "node",
    "id": 4261505170,
    "lat": 43.295108,
    "lon": -5.6824901,
    "tags": {
      "name": "Pingu",
      "shop": "supermarket"
    }
  },
  {
    "type": "node",
    "id": 4311513296,
    "lat": 43.5607287,
    "lon": -5.9244589,
    "tags": {
      "addr:housenumber": "3",
      "addr:postcode": "33401",
      "addr:street": "Calle Marcos del Torniello",
      "brand": "Mercadona",
      "brand:wikidata": "Q377705",
      "brand:wikipedia": "es:Mercadona",
      "name": "Mercadona",
      "shop": "supermarket",
      "website": "https://www.mercadona.es",
      "wheelchair": "yes"
    }
  },
  {
    "type": "node",
    "id": 4317675554,
    "lat": 43.3039518,
    "lon": -5.690411,
    "tags": {
      "addr:city": "Langreo / Llangréu",
      "addr:housenumber": "5",
      "addr:postcode": "33930",
      "addr:street": "Calle Marino Gutiérrez",
      "brand": "Alimerka",
      "brand:wikidata": "Q16482738",
      "brand:wikipedia": "es:Alimerka",
      "name": "Alimerka",
      "opening_hours": "Mo-Sa 09:00-21:30; Su off; PH off",
      "shop": "supermarket"
    }
  },
  {
    "type": "node",
    "id": 4359596390,
    "lat": 43.3928853,
    "lon": -5.6641555,
    "tags": {
      "name": "Economato Hunosa",
      "shop": "supermarket"
    }
  },
  {
    "type": "node",
    "id": 4374463628,
    "lat": 43.390099,
    "lon": -4.4886807,
    "tags": {
      "addr:city": "Pechón",
      "addr:housenumber": "65",
      "addr:postcode": "39594",
      "addr:street": "Barrio Quintana",
      "amenity": "restaurant",
      "bar": "yes",
      "cuisine": "spanish;regional",
      "name": "Casa Ceto BAR TIENDA",
      "opening_hours": "Mo-Su 12:00-23:30",
      "outdoor_seating": "yes",
      "phone": "+34 649 81 13 08",
      "self_service": "yes",
      "shop": "supermarket",
      "website": "https://locales.bar/v/Casa-Ceto-BAR-TIENDA-Bt01o0eTGnHksNgDHBFvI",
      "website:menu": "https://locales.bar/m/Bt01o0eTGnHksNgDHBFvI"
    }
  },
  {
    "type": "node",
    "id": 4402627080,
    "lat": 43.5336824,
    "lon": -6.0707213,
    "tags": {
      "brand": "Covirán",
      "brand:website": "https://www.coviran.es",
      "brand:wikidata": "Q61070539",
      "brand:wikipedia": "es:Covirán",
      "name": "Covirán",
      "name:es": "Covirán",
      "name:pt": "Coviran",
      "shop": "supermarket"
    }
  },
  {
    "type": "node",
    "id": 4416849640,
    "lat": 43.4002904,
    "lon": -5.8103543,
    "tags": {
      "addr:city": "Lugones",
      "addr:postcode": "33420",
      "addr:street": "Avenida de Viella",
      "brand": "Alimerka",
      "brand:wikidata": "Q16482738",
      "brand:wikipedia": "es:Alimerka",
      "name": "Alimerka",
      "shop": "supermarket"
    }
  },
  {
    "type": "node",
    "id": 4417512691,
    "lat": 43.252349,
    "lon": -5.7752146,
    "tags": {
      "brand": "masymas",
      "brand:wikidata": "Q6135987",
      "brand:wikipedia": "es:Supermercados Masymas",
      "check_date": "2025-09-06",
      "name": "masymas",
      "opening_hours": "Mo-Sa 09:00-21:30",
      "operator": "Hijos de Luis Rodríguez, S.A.",
      "operator:wikidata": "Q111520108",
      "shop": "supermarket"
    }
  },
  {
    "type": "node",
    "id": 4469321825,
    "lat": 43.3699452,
    "lon": -5.8551289,
    "tags": {
      "addr:city": "Oviedo",
      "addr:housenumber": "17",
      "addr:postcode": "33012",
      "addr:street": "Calle Torrecerredo",
      "brand": "Alcampo",
      "brand:wikidata": "Q2832081",
      "name": "Alcampo",
      "opening_hours": "Mo-Sa 09:00-21:30; Su,PH off",
      "shop": "supermarket",
      "wheelchair": "limited"
    }
  },
  {
    "type": "node",
    "id": 4481653889,
    "lat": 43.4378021,
    "lon": -4.9404409,
    "tags": {
      "addr:city": "Nueva",
      "name": "Minymas",
      "name:es": "Minymas",
      "shop": "supermarket"
    }
  },
  {
    "type": "node",
    "id": 4598690030,
    "lat": 43.2933164,
    "lon": -5.6813621,
    "tags": {
      "brand": "La Plaza de DIA",
      "brand:wikidata": "Q58904673",
      "name": "La Plaza de DIA",
      "opening_hours": "Mo-Sa 09:00-21:30",
      "shop": "supermarket",
      "wheelchair": "no"
    }
  },
  {
    "type": "node",
    "id": 4655944594,
    "lat": 43.541391,
    "lon": -5.6633207,
    "tags": {
      "addr:housenumber": "24",
      "addr:street": "Calle de Los Moros",
      "name": "creoquete",
      "shop": "supermarket"
    }
  },
  {
    "type": "node",
    "id": 4763017838,
    "lat": 43.3557977,
    "lon": -5.8498197,
    "tags": {
      "addr:city": "Oviedo",
      "addr:street": "Calle Muñoz Degraín",
      "brand": "Alimerka",
      "brand:wikidata": "Q16482738",
      "name": "Alimerka",
      "shop": "supermarket"
    }
  },
  {
    "type": "node",
    "id": 4776890914,
    "lat": 43.5375696,
    "lon": -5.6500768,
    "tags": {
      "addr:city": "Gijón",
      "addr:housenumber": "2",
      "addr:postcode": "33202",
      "addr:street": "Calle Aguado",
      "brand": "masymas",
      "brand:wikidata": "Q6135987",
      "brand:wikipedia": "es:Supermercados Masymas",
      "name": "masymas",
      "opening_hours": "09:00-21:30",
      "operator": "Hijos de Luis Rodríguez, S.A.",
      "operator:wikidata": "Q111520108",
      "shop": "supermarket"
    }
  },
  {
    "type": "node",
    "id": 4798569653,
    "lat": 43.2953058,
    "lon": -5.683516,
    "tags": {
      "brand": "Dia",
      "brand:wikidata": "Q925132",
      "brand:wikipedia": "es:DIA (supermercados)",
      "name": "Dia",
      "shop": "supermarket"
    }
  },
  {
    "type": "node",
    "id": 4801067954,
    "lat": 43.3299727,
    "lon": -5.7185039,
    "tags": {
      "brand": "Dia Market",
      "brand:wikidata": "Q925132",
      "brand:wikipedia": "es:Supermercados DIA",
      "name": "Dia Market",
      "shop": "supermarket"
    }
  },
  {
    "type": "node",
    "id": 4818587926,
    "lat": 43.5374171,
    "lon": -5.6684893,
    "tags": {
      "addr:city": "Gijón",
      "addr:street": "Calle Avilés",
      "brand": "masymas",
      "brand:wikidata": "Q6135987",
      "brand:wikipedia": "es:Supermercados Masymas",
      "name": "masymas",
      "opening_hours": "Mo-Sa 09:30-21:00",
      "operator": "Hijos de Luis Rodríguez, S.A.",
      "operator:wikidata": "Q111520108",
      "shop": "supermarket"
    }
  },
  {
    "type": "node",
    "id": 4886004199,
    "lat": 43.4103313,
    "lon": -5.559828,
    "tags": {
      "addr:city": "Vega",
      "brand": "Covirán",
      "brand:website": "https://www.coviran.es",
      "brand:wikidata": "Q61070539",
      "brand:wikipedia": "es:Covirán",
      "name": "Covirán",
      "name:es": "Covirán",
      "name:pt": "Coviran",
      "shop": "supermarket"
    }
  },
  {
    "type": "node",
    "id": 4921355410,
    "lat": 43.4570266,
    "lon": -5.0620924,
    "tags": {
      "addr:city": "Ribadesella / Ribeseya",
      "brand": "Spar",
      "brand:wikidata": "Q610492",
      "brand:wikipedia": "es:SPAR",
      "name": "Spar",
      "shop": "supermarket"
    }
  },
  {
    "type": "node",
    "id": 4936565167,
    "lat": 43.3307052,
    "lon": -5.5655949,
    "tags": {
      "addr:city": "Martimporra",
      "name": "El Economato",
      "shop": "supermarket"
    }
  },
  {
    "type": "node",
    "id": 4958162478,
    "lat": 43.3569041,
    "lon": -5.8489599,
    "tags": {
      "brand": "Alcampo",
      "brand:wikidata": "Q2832081",
      "name": "Alcampo",
      "old_name": "El Árbol",
      "shop": "supermarket"
    }
  },
  {
    "type": "node",
    "id": 4958162479,
    "lat": 43.356965,
    "lon": -5.8492923,
    "tags": {
      "addr:city": "Oviedo",
      "addr:street": "Calle González Besada",
      "brand": "masymas",
      "brand:wikidata": "Q6135987",
      "brand:wikipedia": "es:Supermercados Masymas",
      "name": "masymas",
      "operator": "Hijos de Luis Rodríguez, S.A.",
      "operator:wikidata": "Q111520108",
      "shop": "supermarket"
    }
  },
  {
    "type": "node",
    "id": 4988877250,
    "lat": 42.9713778,
    "lon": -6.0001807,
    "tags": {
      "addr:city": "San Emiliano",
      "shop": "supermarket"
    }
  },
  {
    "type": "node",
    "id": 4988877251,
    "lat": 42.9733122,
    "lon": -6.0009483,
    "tags": {
      "shop": "supermarket"
    }
  },
  {
    "type": "node",
    "id": 5019362953,
    "lat": 43.5361841,
    "lon": -5.6577703,
    "tags": {
      "addr:city": "Gijón",
      "addr:street": "Avenida de Pablo Iglesias",
      "brand": "Alimerka",
      "brand:wikidata": "Q16482738",
      "brand:wikipedia": "es:Alimerka",
      "name": "Alimerka",
      "shop": "supermarket"
    }
  },
  {
    "type": "node",
    "id": 5041148666,
    "lat": 43.5426033,
    "lon": -5.6620551,
    "tags": {
      "addr:city": "Gijón",
      "addr:housenumber": "2",
      "addr:postcode": "33201",
      "addr:street": "Calle Munuza",
      "name": "OpenCor",
      "opening_hours": "8:00-22:00",
      "operator": "Opencor",
      "shop": "supermarket",
      "source": "survey"
    }
  },
  {
    "type": "node",
    "id": 5064369888,
    "lat": 43.3071578,
    "lon": -5.6917951,
    "tags": {
      "brand": "Alimerka",
      "brand:wikidata": "Q16482738",
      "brand:wikipedia": "es:Alimerka",
      "name": "Alimerka",
      "opening_hours": "Mo-Sa 09:00-21:30;Su off; PH off",
      "shop": "supermarket"
    }
  },
  {
    "type": "node",
    "id": 5064369890,
    "lat": 43.3102548,
    "lon": -5.6892966,
    "tags": {
      "addr:housenumber": "2",
      "addr:postcode": "33930",
      "addr:street": "Calle Alfonso Argüelles",
      "air_conditioning": "yes",
      "brand": "Mercadona",
      "brand:wikidata": "Q377705",
      "brand:wikipedia": "es:Mercadona",
      "check_date": "2025-11-03",
      "internet_access": "no",
      "name": "Mercadona",
      "opening_hours": "Mo-Sa 09:00-21:30; Su off; PH off",
      "organic": "yes",
      "payment:cash": "yes",
      "payment:credit_cards": "yes",
      "payment:debit_cards": "yes",
      "phone": "+34 985 69 80 53",
      "second_hand": "no",
      "shop": "supermarket",
      "website": "https://www.mercadona.es",
      "wheelchair": "yes"
    }
  },
  {
    "type": "node",
    "id": 5103722987,
    "lat": 43.5496055,
    "lon": -6.8270818,
    "tags": {
      "addr:city": "A Caridá",
      "addr:housenumber": "7",
      "addr:postcode": "33750",
      "addr:street": "La Caridad - Rozadas",
      "brand": "Dia",
      "brand:wikidata": "Q925132",
      "brand:wikipedia": "es:DIA (supermercados)",
      "name": "Dia",
      "shop": "supermarket"
    }
  },
  {
    "type": "node",
    "id": 5111747925,
    "lat": 43.3676352,
    "lon": -5.855869,
    "tags": {
      "addr:city": "Oviedo",
      "brand": "masymas",
      "brand:wikidata": "Q6135987",
      "brand:wikipedia": "es:Supermercados Masymas",
      "name": "masymas",
      "operator": "Hijos de Luis Rodríguez, S.A.",
      "operator:wikidata": "Q111520108",
      "shop": "supermarket"
    }
  },
  {
    "type": "node",
    "id": 5133683189,
    "lat": 43.5260975,
    "lon": -5.6762829,
    "tags": {
      "addr:city": "Gijón",
      "brand": "Alimerka",
      "brand:wikidata": "Q16482738",
      "brand:wikipedia": "es:Alimerka",
      "name": "Alimerka",
      "shop": "supermarket"
    }
  },
  {
    "type": "node",
    "id": 5133834104,
    "lat": 43.5375519,
    "lon": -5.6719579,
    "tags": {
      "addr:city": "Gijón",
      "addr:street": "Avenida de Portugal",
      "brand": "Alimerka",
      "brand:wikidata": "Q16482738",
      "brand:wikipedia": "es:Alimerka",
      "check_date": "2025-02-25",
      "name": "Alimerka",
      "shop": "supermarket"
    }
  },
  {
    "type": "node",
    "id": 5161561280,
    "lat": 43.3627077,
    "lon": -5.8632963,
    "tags": {
      "name": "Rodera",
      "shop": "supermarket"
    }
  },
  {
    "type": "node",
    "id": 5178924650,
    "lat": 43.5218653,
    "lon": -5.665303,
    "tags": {
      "brand": "La Plaza de DIA",
      "brand:wikidata": "Q58904673",
      "name": "La Plaza de DIA",
      "shop": "supermarket"
    }
  },
  {
    "type": "node",
    "id": 5178924658,
    "lat": 43.5230212,
    "lon": -5.6664576,
    "tags": {
      "brand": "Dia Market",
      "brand:wikidata": "Q925132",
      "brand:wikipedia": "es:Supermercados DIA",
      "name": "Dia Market",
      "shop": "supermarket"
    }
  },
  {
    "type": "node",
    "id": 5178967544,
    "lat": 43.5209225,
    "lon": -5.6643453,
    "tags": {
      "addr:city": "Gijón",
      "brand": "masymas",
      "brand:wikidata": "Q6135987",
      "brand:wikipedia": "es:Supermercados Masymas",
      "name": "masymas",
      "operator": "Hijos de Luis Rodríguez, S.A.",
      "operator:wikidata": "Q111520108",
      "shop": "supermarket"
    }
  },
  {
    "type": "node",
    "id": 5227205861,
    "lat": 43.3675298,
    "lon": -5.8530421,
    "tags": {
      "addr:city": "Oviedo",
      "addr:postcode": "33001",
      "addr:street": "Avenida de Santander",
      "brand": "Alimerka",
      "brand:wikidata": "Q16482738",
      "brand:wikipedia": "es:Alimerka",
      "name": "Alimerka",
      "opening_hours": "Mo-Sa 09:00-21:30",
      "shop": "supermarket"
    }
  },
  {
    "type": "node",
    "id": 5245364916,
    "lat": 43.5326491,
    "lon": -5.6478548,
    "tags": {
      "addr:city": "Gijón",
      "addr:street": "Calle Avelino González Mallada",
      "brand": "masymas",
      "brand:wikidata": "Q6135987",
      "brand:wikipedia": "es:Supermercados Masymas",
      "name": "masymas",
      "operator": "Hijos de Luis Rodríguez, S.A.",
      "operator:wikidata": "Q111520108",
      "shop": "supermarket"
    }
  },
  {
    "type": "node",
    "id": 5255318229,
    "lat": 43.385747,
    "lon": -5.8190671,
    "tags": {
      "addr:city": "La Corredoria",
      "brand": "Alimerka",
      "brand:wikidata": "Q16482738",
      "brand:wikipedia": "es:Alimerka",
      "name": "Alimerka",
      "shop": "supermarket"
    }
  },
  {
    "type": "node",
    "id": 5320277021,
    "lat": 43.5441604,
    "lon": -5.6632979,
    "tags": {
      "addr:city": "Gijón",
      "brand": "masymas",
      "brand:wikidata": "Q6135987",
      "brand:wikipedia": "es:Supermercados Masymas",
      "name": "masymas",
      "operator": "Hijos de Luis Rodríguez, S.A.",
      "operator:wikidata": "Q111520108",
      "shop": "supermarket"
    }
  },
  {
    "type": "node",
    "id": 5469991691,
    "lat": 43.5384019,
    "lon": -7.0424962,
    "tags": {
      "brand": "Gadis",
      "brand:wikidata": "Q12389151",
      "brand:wikipedia": "gl:Gadisa",
      "contact:phone": "+34 982129460",
      "name": "Gadis",
      "shop": "supermarket",
      "source": "survey"
    }
  },
  {
    "type": "node",
    "id": 5556531468,
    "lat": 43.3838846,
    "lon": -5.8237135,
    "tags": {
      "addr:city": "Oviedo",
      "addr:postcode": "33011",
      "brand": "masymas",
      "brand:wikidata": "Q6135987",
      "brand:wikipedia": "es:Supermercados Masymas",
      "name": "masymas",
      "operator": "Hijos de Luis Rodríguez, S.A.",
      "operator:wikidata": "Q111520108",
      "shop": "supermarket"
    }
  },
  {
    "type": "node",
    "id": 5558725919,
    "lat": 43.3586383,
    "lon": -5.5086346,
    "tags": {
      "addr:city": "Nava",
      "brand": "La Plaza de DIA",
      "brand:wikidata": "Q58904673",
      "name": "La Plaza de DIA",
      "shop": "supermarket"
    }
  },
  {
    "type": "node",
    "id": 5568589776,
    "lat": 43.3625654,
    "lon": -5.8604014,
    "tags": {
      "addr:city": "Oviedo",
      "addr:street": "Avenida de Colón",
      "brand": "Alimerka",
      "brand:wikidata": "Q16482738",
      "brand:wikipedia": "es:Alimerka",
      "name": "Alimerka",
      "shop": "supermarket"
    }
  },
  {
    "type": "node",
    "id": 5628626634,
    "lat": 42.9763557,
    "lon": -5.0055414,
    "tags": {
      "name": "Alimentación Olga",
      "shop": "supermarket"
    }
  },
  {
    "type": "node",
    "id": 5694081273,
    "lat": 43.5525726,
    "lon": -5.9193825,
    "tags": {
      "brand": "Alimerka",
      "brand:wikidata": "Q16482738",
      "brand:wikipedia": "es:Alimerka",
      "name": "Alimerka",
      "shop": "supermarket"
    }
  },
  {
    "type": "node",
    "id": 5851290859,
    "lat": 43.4725041,
    "lon": -5.1833535,
    "tags": {
      "shop": "supermarket"
    }
  },
  {
    "type": "node",
    "id": 5863376695,
    "lat": 43.3914502,
    "lon": -5.6634069,
    "tags": {
      "brand": "Alimerka",
      "brand:wikidata": "Q16482738",
      "brand:wikipedia": "es:Alimerka",
      "name": "Alimerka",
      "shop": "supermarket"
    }
  },
  {
    "type": "node",
    "id": 5873543285,
    "lat": 43.158527,
    "lon": -5.8295305,
    "tags": {
      "brand": "masymas",
      "brand:wikidata": "Q6135987",
      "brand:wikipedia": "es:Supermercados Masymas",
      "name": "masymas",
      "opening_hours": "Mo-Sa 09:00-21:00; Su 09:30-13:30",
      "operator": "Hijos de Luis Rodríguez, S.A.",
      "operator:wikidata": "Q111520108",
      "shop": "supermarket",
      "wheelchair": "yes"
    }
  },
  {
    "type": "node",
    "id": 5901608495,
    "lat": 43.5398932,
    "lon": -5.6559799,
    "tags": {
      "name": "Comida a Granel",
      "shop": "supermarket"
    }
  },
  {
    "type": "node",
    "id": 5901631395,
    "lat": 43.5400234,
    "lon": -5.6566676,
    "tags": {
      "name": "De sol a sol",
      "shop": "supermarket"
    }
  },
  {
    "type": "node",
    "id": 5909952888,
    "lat": 43.4406029,
    "lon": -5.818338,
    "tags": {
      "addr:city": "Lugo de Llanera",
      "addr:housenumber": "16",
      "addr:postcode": "33690",
      "addr:street": "Calle Naranjo de Bulnes",
      "brand": "Alimerka",
      "brand:wikidata": "Q16482738",
      "brand:wikipedia": "es:Alimerka",
      "name": "Alimerka",
      "opening_hours": "Mo-Sa 09:00-21:30",
      "shop": "supermarket"
    }
  },
  {
    "type": "node",
    "id": 6039731815,
    "lat": 43.5437542,
    "lon": -5.9345653,
    "tags": {
      "addr:postcode": "33410",
      "addr:street": "Carretera de Grado",
      "name": "Hipercor Avilés",
      "nohousenumber": "yes",
      "operator": "El Corte Inglés",
      "shop": "supermarket"
    }
  },
  {
    "type": "node",
    "id": 6042551994,
    "lat": 43.3234231,
    "lon": -4.5842299,
    "tags": {
      "brand": "Covirán",
      "brand:website": "https://www.coviran.es",
      "brand:wikidata": "Q61070539",
      "brand:wikipedia": "es:Covirán",
      "name": "Covirán",
      "name:es": "Covirán",
      "name:pt": "Coviran",
      "shop": "supermarket"
    }
  },
  {
    "type": "node",
    "id": 6176692843,
    "lat": 43.1618477,
    "lon": -5.6234515,
    "tags": {
      "addr:city": "Cabañaquinta",
      "addr:housenumber": "18",
      "addr:postcode": "33686",
      "addr:street": "Avenida de la Constitución",
      "name": "MyM Donata",
      "operator": "Supermercados Donata",
      "phone": "+34 985494051",
      "shop": "supermarket",
      "website": "https://mymdonata.com/"
    }
  },
  {
    "type": "node",
    "id": 6176692844,
    "lat": 43.1625614,
    "lon": -5.6251623,
    "tags": {
      "addr:city": "Cabañaquinta",
      "addr:housenumber": "46",
      "addr:postcode": "33686",
      "addr:street": "Avenida de la Constitución",
      "brand": "Alimerka",
      "brand:wikidata": "Q16482738",
      "brand:wikipedia": "es:Alimerka",
      "name": "Alimerka",
      "operator": "Alimerka",
      "phone": "+34 985494721",
      "shop": "supermarket",
      "website": "https://www.alimerka.es/"
    }
  },
  {
    "type": "node",
    "id": 6182325149,
    "lat": 42.9764202,
    "lon": -5.0040351,
    "tags": {
      "check_date": "2025-04-18",
      "name": "Frutas García",
      "shop": "supermarket"
    }
  },
  {
    "type": "node",
    "id": 6244579811,
    "lat": 43.1672315,
    "lon": -5.737639,
    "tags": {
      "brand": "Alimerka",
      "brand:wikidata": "Q16482738",
      "brand:wikipedia": "es:Alimerka",
      "name": "Alimerka",
      "shop": "supermarket"
    }
  },
  {
    "type": "node",
    "id": 6251443038,
    "lat": 43.1688016,
    "lon": -5.7387095,
    "tags": {
      "addr:city": "Morea/Moreda",
      "brand": "La Plaza de DIA",
      "brand:wikidata": "Q58904673",
      "name": "La Plaza de DIA",
      "operator": "el arbol",
      "operator:wikidata": "Q925132",
      "operator:wikipedia": "es:Supermercados Dia",
      "shop": "supermarket"
    }
  },
  {
    "type": "node",
    "id": 6274909991,
    "lat": 43.4646025,
    "lon": -7.0479564,
    "tags": {
      "name": "Supermercado Casa Nemesio",
      "shop": "supermarket"
    }
  },
  {
    "type": "node",
    "id": 6342901875,
    "lat": 43.1691672,
    "lon": -5.7377961,
    "tags": {
      "brand": "Dia Market",
      "brand:wikidata": "Q925132",
      "brand:wikipedia": "es:Supermercados DIA",
      "name": "Dia Market",
      "shop": "supermarket"
    }
  },
  {
    "type": "node",
    "id": 6353301719,
    "lat": 43.591184,
    "lon": -5.7638034,
    "tags": {
      "addr:city": "Candás",
      "addr:housenumber": "5",
      "addr:postcode": "33430",
      "addr:street": "Calle San Antonio",
      "brand": "Alcampo",
      "brand:wikidata": "Q2832081",
      "name": "Alcampo",
      "opening_hours": "Mo-Sa 09:00-21:30",
      "shop": "supermarket",
      "website": "https://compraonline.alcampo.es/"
    }
  },
  {
    "type": "node",
    "id": 6353432027,
    "lat": 43.5879187,
    "lon": -5.7670714,
    "tags": {
      "brand": "Dia Market",
      "brand:wikidata": "Q925132",
      "brand:wikipedia": "es:Supermercados DIA",
      "name": "Dia Market",
      "shop": "supermarket"
    }
  },
  {
    "type": "node",
    "id": 6468702915,
    "lat": 43.5768288,
    "lon": -6.2385512,
    "tags": {
      "brand": "Covirán",
      "brand:website": "https://www.coviran.es",
      "brand:wikidata": "Q61070539",
      "brand:wikipedia": "es:Covirán",
      "name": "Covirán",
      "name:es": "Covirán",
      "name:pt": "Coviran",
      "shop": "supermarket"
    }
  },
  {
    "type": "node",
    "id": 6501250093,
    "lat": 43.3852878,
    "lon": -5.7006747,
    "tags": {
      "brand": "Covirán",
      "brand:website": "https://www.coviran.es",
      "brand:wikidata": "Q61070539",
      "brand:wikipedia": "es:Covirán",
      "name": "Covirán",
      "name:es": "Covirán",
      "name:pt": "Coviran",
      "shop": "supermarket"
    }
  },
  {
    "type": "node",
    "id": 6511630130,
    "lat": 43.5496574,
    "lon": -6.827748,
    "tags": {
      "addr:housenumber": "3",
      "addr:street": "Calle Mohíces",
      "name": "Supermercados",
      "shop": "supermarket"
    }
  },
  {
    "type": "node",
    "id": 6555768589,
    "lat": 43.1624374,
    "lon": -5.827668,
    "tags": {
      "addr:city": "La Pola",
      "addr:housenumber": "28",
      "addr:postcode": "33630",
      "addr:street": "Vicente Regueral",
      "air_conditioning": "yes",
      "name": "El Economato",
      "service:vehicle:inspection": "yes",
      "service:vehicle:repairs": "yes",
      "service:vehicle:tyres": "yes",
      "shop": "supermarket"
    }
  },
  {
    "type": "node",
    "id": 6563455486,
    "lat": 43.2496175,
    "lon": -5.7750668,
    "tags": {
      "brand": "Alimerka",
      "brand:wikidata": "Q16482738",
      "brand:wikipedia": "es:Alimerka",
      "name": "Alimerka",
      "shop": "supermarket"
    }
  },
  {
    "type": "node",
    "id": 6600785630,
    "lat": 43.3014681,
    "lon": -4.8125271,
    "tags": {
      "addr:city": "Arenas de Cabrales",
      "brand": "Masymas",
      "brand:wikidata": "Q6135987",
      "brand:wikipedia": "es:Supermercados Masymas",
      "contact:facebook": "https://www.facebook.com/masymascabrales/",
      "name": "mym",
      "opening_hours": "Mo-Sa 09:30-14:00,16:00-20:30",
      "operator": "masymas supermercados",
      "phone": "+34 985 84 66 78",
      "shop": "supermarket"
    }
  },
  {
    "type": "node",
    "id": 6640289838,
    "lat": 43.3875193,
    "lon": -4.3856322,
    "tags": {
      "name": "minymas supermercado",
      "opening_hours": "Mo-Su 09:00-14:30, 17:00-21:00",
      "shop": "supermarket"
    }
  },
  {
    "type": "node",
    "id": 6660570473,
    "lat": 42.9395189,
    "lon": -6.3188531,
    "tags": {
      "brand": "Alcampo",
      "brand:wikidata": "Q2832081",
      "name": "Alcampo",
      "old_name": "La Plaza de DIA",
      "opening_hours": "Mo-Sa 09:00-21:30",
      "shop": "supermarket"
    }
  },
  {
    "type": "node",
    "id": 6923442527,
    "lat": 43.5729304,
    "lon": -6.2384027,
    "tags": {
      "addr:city": "Oviñana",
      "name": "La tiendina",
      "shop": "supermarket"
    }
  },
  {
    "type": "node",
    "id": 7036708227,
    "lat": 43.5362826,
    "lon": -5.6672591,
    "tags": {
      "addr:city": "Gijón",
      "brand": "Alimerka",
      "brand:wikidata": "Q16482738",
      "brand:wikipedia": "es:Alimerka",
      "check_date": "2024-03-27",
      "name": "Alimerka",
      "shop": "supermarket",
      "wheelchair": "yes"
    }
  },
  {
    "type": "node",
    "id": 7139808667,
    "lat": 43.5272213,
    "lon": -5.650008,
    "tags": {
      "addr:city": "Gijón",
      "brand": "Alimerka",
      "brand:wikidata": "Q16482738",
      "brand:wikipedia": "es:Alimerka",
      "name": "Alimerka",
      "shop": "supermarket"
    }
  },
  {
    "type": "node",
    "id": 7796271085,
    "lat": 43.1247529,
    "lon": -7.070178,
    "tags": {
      "brand": "Covirán",
      "brand:website": "https://www.coviran.es",
      "brand:wikidata": "Q61070539",
      "brand:wikipedia": "es:Covirán",
      "name": "Covirán",
      "name:es": "Covirán",
      "name:pt": "Coviran",
      "shop": "supermarket"
    }
  },
  {
    "type": "node",
    "id": 7799329388,
    "lat": 43.2936192,
    "lon": -6.4117832,
    "tags": {
      "name": "Forcón",
      "shop": "supermarket"
    }
  },
  {
    "type": "node",
    "id": 7807396685,
    "lat": 43.0925738,
    "lon": -6.2554613,
    "tags": {
      "name": "Casa Julia",
      "shop": "supermarket"
    }
  },
  {
    "type": "node",
    "id": 7815223514,
    "lat": 42.9443065,
    "lon": -6.2511313,
    "tags": {
      "name": "Las Canterinas",
      "shop": "supermarket"
    }
  },
  {
    "type": "node",
    "id": 7817967285,
    "lat": 43.2214893,
    "lon": -5.4552484,
    "tags": {
      "addr:city": "Rusecu / Rioseco",
      "name": "El río",
      "opening_hours": "Mo-Sa 09:00-20:00",
      "shop": "supermarket"
    }
  },
  {
    "type": "node",
    "id": 7829263285,
    "lat": 43.315137,
    "lon": -4.4649886,
    "tags": {
      "name": "La tienda de Cristo",
      "shop": "supermarket"
    }
  },
  {
    "type": "node",
    "id": 7829994085,
    "lat": 43.3171888,
    "lon": -4.3000075,
    "tags": {
      "brand": "Covirán",
      "brand:website": "https://www.coviran.es",
      "brand:wikidata": "Q61070539",
      "brand:wikipedia": "es:Covirán",
      "name": "Covirán",
      "name:es": "Covirán",
      "name:pt": "Coviran",
      "shop": "supermarket"
    }
  },
  {
    "type": "node",
    "id": 7837712098,
    "lat": 43.5388659,
    "lon": -6.7240718,
    "tags": {
      "addr:housenumber": "13",
      "addr:postcode": "33710",
      "addr:street": "Calle Mariano Luiña",
      "name": "Mercado de Abastos",
      "opening_hours": "Mo-Fr 09:00-14:00; Sa 09:00-14:00",
      "shop": "supermarket"
    }
  },
  {
    "type": "node",
    "id": 7850278385,
    "lat": 43.5368695,
    "lon": -5.6313558,
    "tags": {
      "check_date:opening_hours": "2022-01-09",
      "name": "Rastro de los domingos",
      "opening_hours": "Su 09:00-15:00",
      "shop": "supermarket"
    }
  },
  {
    "type": "node",
    "id": 7882069291,
    "lat": 43.3607986,
    "lon": -5.8628826,
    "tags": {
      "brand": "Alimerka",
      "brand:wikidata": "Q16482738",
      "brand:wikipedia": "es:Alimerka",
      "check_date:opening_hours": "2024-10-18",
      "name": "Alimerka",
      "opening_hours": "Mo-Sa 09:00-21:30",
      "shop": "supermarket"
    }
  },
  {
    "type": "node",
    "id": 8024538269,
    "lat": 43.3592785,
    "lon": -5.8629914,
    "tags": {
      "brand": "Dia",
      "brand:wikidata": "Q925132",
      "brand:wikipedia": "es:DIA (supermercados)",
      "name": "Dia",
      "opening_hours": "Mo-Sa 09:00-20:00,09:00-21:00",
      "shop": "supermarket"
    }
  },
  {
    "type": "node",
    "id": 8024694975,
    "lat": 43.449142,
    "lon": -6.0714814,
    "tags": {
      "name": "Julia",
      "shop": "supermarket"
    }
  },
  {
    "type": "node",
    "id": 8237049957,
    "lat": 43.5317528,
    "lon": -5.6629273,
    "tags": {
      "brand": "Mercadona",
      "brand:wikidata": "Q377705",
      "brand:wikipedia": "es:Mercadona",
      "check_date": "2025-03-06",
      "check_date:opening_hours": "2025-03-06",
      "name": "Mercadona",
      "opening_hours": "Mo-Sa 09:00-21:30",
      "shop": "supermarket",
      "wheelchair": "yes"
    }
  },
  {
    "type": "node",
    "id": 8287170905,
    "lat": 43.2534029,
    "lon": -6.0149489,
    "tags": {
      "brand": "Covirán",
      "brand:website": "https://www.coviran.es",
      "brand:wikidata": "Q61070539",
      "brand:wikipedia": "es:Covirán",
      "name": "Covirán",
      "name:es": "Covirán",
      "name:pt": "Coviran",
      "shop": "supermarket"
    }
  },
  {
    "type": "node",
    "id": 8441006935,
    "lat": 43.5559109,
    "lon": -5.9314234,
    "tags": {
      "brand": "Alimerka",
      "brand:wikidata": "Q16482738",
      "brand:wikipedia": "es:Alimerka",
      "name": "Alimerka",
      "shop": "supermarket",
      "wheelchair": "limited"
    }
  },
  {
    "type": "node",
    "id": 8441019918,
    "lat": 43.5560705,
    "lon": -5.929226,
    "tags": {
      "brand": "masymas",
      "brand:wikidata": "Q6135987",
      "brand:wikipedia": "es:Supermercados Masymas",
      "check_date": "2022-12-10",
      "name": "masymas",
      "operator": "Hijos de Luis Rodríguez, S.A.",
      "operator:wikidata": "Q111520108",
      "shop": "supermarket",
      "wheelchair": "yes"
    }
  },
  {
    "type": "node",
    "id": 8595475356,
    "lat": 43.3625949,
    "lon": -5.8564274,
    "tags": {
      "addr:city": "Oviedo",
      "addr:housenumber": "7",
      "addr:postcode": "33005",
      "addr:street": "Calle Matemático Pedrayes",
      "name": "Supermercado Riodi",
      "opening_hours": "Mo-Fr 09:00-14:30,16:30-21:00; Sa 09:00-14:00",
      "payment:cash": "yes",
      "payment:credit_cards": "yes",
      "shop": "supermarket",
      "website": "https://riodi.com/"
    }
  },
  {
    "type": "node",
    "id": 8647506868,
    "lat": 43.5378467,
    "lon": -5.6493259,
    "tags": {
      "addr:city": "Gijón",
      "addr:street": "Calle Ezcurdia",
      "brand": "Alimerka",
      "brand:wikidata": "Q16482738",
      "brand:wikipedia": "es:Alimerka",
      "name": "Alimerka",
      "shop": "supermarket"
    }
  },
  {
    "type": "node",
    "id": 8691310949,
    "lat": 43.3641667,
    "lon": -5.8335572,
    "tags": {
      "addr:city": "Oviedo",
      "addr:housenumber": "4",
      "addr:postcode": "33010",
      "addr:street": "Calle Alonso de Proaza",
      "brand": "masymas",
      "brand:wikidata": "Q6135987",
      "brand:wikipedia": "es:Supermercados Masymas",
      "name": "masymas",
      "opening_hours": "Mo-Sa 09:00-21:30",
      "operator": "Hijos de Luis Rodríguez, S.A.",
      "operator:wikidata": "Q111520108",
      "phone": "+34 984 18 35 72",
      "shop": "supermarket",
      "website": "https://www.supermasymas.com"
    }
  },
  {
    "type": "node",
    "id": 8691325749,
    "lat": 43.4376185,
    "lon": -4.9398912,
    "tags": {
      "name": "Uniper",
      "shop": "supermarket"
    }
  },
  {
    "type": "node",
    "id": 8992536862,
    "lat": 43.5369768,
    "lon": -5.6662672,
    "tags": {
      "addr:city": "Gijón",
      "addr:street": "Calle del Decano Prendes Pando",
      "brand": "masymas",
      "brand:wikidata": "Q6135987",
      "name": "masymas",
      "operator": "Hijos de Luis Rodríguez, S.A.",
      "operator:wikidata": "Q111520108",
      "shop": "supermarket"
    }
  },
  {
    "type": "node",
    "id": 9014075165,
    "lat": 43.5621793,
    "lon": -6.2309513,
    "tags": {
      "brand": "Dia",
      "brand:wikidata": "Q925132",
      "brand:wikipedia": "es:DIA (supermercados)",
      "name": "Dia",
      "shop": "supermarket"
    }
  },
  {
    "type": "node",
    "id": 9025084185,
    "lat": 43.2427351,
    "lon": -5.5639989,
    "tags": {
      "brand": "masymas",
      "brand:wikidata": "Q6135987",
      "name": "masymas",
      "operator": "Hijos de Luis Rodríguez, S.A.",
      "operator:wikidata": "Q111520108",
      "shop": "supermarket"
    }
  },
  {
    "type": "node",
    "id": 9100166341,
    "lat": 43.3891008,
    "lon": -4.3320384,
    "tags": {
      "name": "Camping Oyambre Beach",
      "shop": "supermarket"
    }
  },
  {
    "type": "node",
    "id": 9101840505,
    "lat": 43.3829018,
    "lon": -4.3996149,
    "tags": {
      "brand": "Covirán",
      "brand:website": "https://www.coviran.es",
      "brand:wikidata": "Q61070539",
      "brand:wikipedia": "es:Covirán",
      "name": "Covirán",
      "name:es": "Covirán",
      "name:pt": "Coviran",
      "shop": "supermarket"
    }
  },
  {
    "type": "node",
    "id": 9103830421,
    "lat": 43.2883876,
    "lon": -5.6708159,
    "tags": {
      "brand": "Mercadona",
      "brand:wikidata": "Q377705",
      "brand:wikipedia": "es:Mercadona",
      "name": "Mercadona",
      "shop": "supermarket"
    }
  },
  {
    "type": "node",
    "id": 9155898693,
    "lat": 43.5345627,
    "lon": -5.6615855,
    "tags": {
      "name": "Minymas",
      "shop": "supermarket"
    }
  },
  {
    "type": "node",
    "id": 9211848608,
    "lat": 43.5285051,
    "lon": -5.6675959,
    "tags": {
      "name": "minymas",
      "shop": "supermarket"
    }
  },
  {
    "type": "node",
    "id": 9225397510,
    "lat": 43.3657373,
    "lon": -5.850343,
    "tags": {
      "addr:city": "Oviedo",
      "name": "Casa Cerralbo",
      "shop": "supermarket",
      "website": "https://casacerralbo.com/"
    }
  },
  {
    "type": "node",
    "id": 9235869068,
    "lat": 43.3555011,
    "lon": -5.8620622,
    "tags": {
      "brand": "masymas",
      "brand:wikidata": "Q6135987",
      "brand:wikipedia": "es:Supermercados Masymas",
      "name": "masymas",
      "operator": "Hijos de Luis Rodríguez, S.A.",
      "operator:wikidata": "Q111520108",
      "shop": "supermarket"
    }
  },
  {
    "type": "node",
    "id": 9235869069,
    "lat": 43.3557958,
    "lon": -5.8610331,
    "tags": {
      "brand": "Dia",
      "brand:wikidata": "Q925132",
      "name": "Dia",
      "opening_hours": "Mo-Sa 09:00-21:00",
      "operator": "Día",
      "shop": "supermarket"
    }
  },
  {
    "type": "node",
    "id": 9318149408,
    "lat": 43.5311717,
    "lon": -5.6680196,
    "tags": {
      "check_date:opening_hours": "2025-04-18",
      "name": "Alimerka",
      "not:brand:wikidata": "Q16482738",
      "opening_hours": "Mo-Sa 09:00-21:30",
      "shop": "supermarket"
    }
  },
  {
    "type": "node",
    "id": 9337890735,
    "lat": 43.5287115,
    "lon": -5.6668996,
    "tags": {
      "check_date": "2024-06-20",
      "name": "Primapix",
      "shop": "supermarket"
    }
  },
  {
    "type": "node",
    "id": 9368563466,
    "lat": 43.5349422,
    "lon": -5.6414218,
    "tags": {
      "brand": "Minymas",
      "brand:wikipedia": "es:Minymas",
      "name": "Minymas",
      "shop": "supermarket"
    }
  },
  {
    "type": "node",
    "id": 9437476899,
    "lat": 43.5591221,
    "lon": -6.0748791,
    "tags": {
      "addr:city": "L'Arena",
      "addr:street": "Avenida de los Quebrantos",
      "brand": "Dia",
      "brand:wikidata": "Q925132",
      "brand:wikipedia": "es:DIA (supermercados)",
      "name": "Dia",
      "shop": "supermarket"
    }
  },
  {
    "type": "node",
    "id": 9437476900,
    "lat": 43.5587443,
    "lon": -6.0756562,
    "tags": {
      "addr:city": "L'Arena",
      "addr:street": "Avenida de los Quebrantos",
      "brand": "Alimerka",
      "brand:wikidata": "Q16482738",
      "brand:wikipedia": "es:Alimerka",
      "name": "Alimerka",
      "shop": "supermarket"
    }
  },
  {
    "type": "node",
    "id": 9517092589,
    "lat": 43.5378255,
    "lon": -5.6584212,
    "tags": {
      "addr:city": "Gijón",
      "addr:housenumber": "21",
      "addr:postcode": "33201",
      "addr:street": "Calle Celestino Junquera",
      "brand": "Masymas",
      "brand:wikidata": "Q6135987",
      "brand:wikipedia": "es:Supermercados Masymas",
      "name": "Masymas",
      "operator": "Masymas",
      "shop": "supermarket"
    }
  },
  {
    "type": "node",
    "id": 9517092591,
    "lat": 43.5387756,
    "lon": -5.6541063,
    "tags": {
      "addr:city": "Gijón",
      "addr:housenumber": "3",
      "addr:postcode": "33202",
      "addr:street": "Calle Adosinda",
      "brand": "Dia",
      "brand:wikidata": "Q925132",
      "brand:wikipedia": "es:DIA (supermercados)",
      "name": "Dia",
      "operator": "Dia",
      "shop": "supermarket"
    }
  },
  {
    "type": "node",
    "id": 9517092592,
    "lat": 43.5385297,
    "lon": -5.6551811,
    "tags": {
      "addr:city": "Gijón",
      "addr:housenumber": "31-33",
      "addr:postcode": "33202",
      "addr:street": "Calle Uría",
      "brand": "Supercor",
      "brand:wikidata": "Q6135841",
      "brand:wikipedia": "es:Supercor",
      "name": "Supercor",
      "shop": "supermarket"
    }
  },
  {
    "type": "node",
    "id": 9517092593,
    "lat": 43.5391626,
    "lon": -5.6642405,
    "tags": {
      "addr:city": "Gijón",
      "addr:housenumber": "6",
      "addr:postcode": "33206",
      "addr:street": "Calle Donato Argüelles",
      "brand": "Supercor",
      "brand:wikidata": "Q6135841",
      "brand:wikipedia": "es:Supercor",
      "name": "Supercor",
      "operator": "Supercor",
      "shop": "supermarket"
    }
  },
  {
    "type": "node",
    "id": 9598312328,
    "lat": 43.4100239,
    "lon": -5.574593,
    "tags": {
      "addr:city": "Barbecho - Sariego",
      "addr:housenumber": "1393",
      "addr:postcode": "33518",
      "addr:street": "Carretera de Vega al Romeru",
      "addr:unit": "metros",
      "currency:EUR": "yes",
      "email": "piensosvigil@piensosvigil.com",
      "name": "Piensos Vigil",
      "opening_hours": "Mo-Fr 09:00-13:00,15:00-19:00",
      "payment:cash": "yes",
      "payment:credit_cards": "yes",
      "payment:debit_cards": "yes",
      "phone": "+34985748392",
      "shop": "supermarket",
      "website": "https://piensosvigil.com/"
    }
  },
  {
    "type": "node",
    "id": 9653734852,
    "lat": 43.5321075,
    "lon": -5.6640517,
    "tags": {
      "addr:city": "Gijón",
      "addr:housenumber": "27",
      "addr:postcode": "33208",
      "addr:street": "Calle Pérez de Ayala",
      "brand": "Lidl",
      "brand:website": "https://www.lidl.es",
      "brand:wikidata": "Q151954",
      "check_date": "2025-03-06",
      "name": "Lidl",
      "opening_hours": "Mo-Sa 09:00-21:30",
      "operator": "Lidl",
      "shop": "supermarket",
      "wheelchair": "yes"
    }
  },
  {
    "type": "node",
    "id": 9653734853,
    "lat": 43.5300158,
    "lon": -5.6659398,
    "tags": {
      "brand": "Alimerka",
      "brand:wikidata": "Q16482738",
      "brand:wikipedia": "es:Alimerka",
      "name": "Alimerka",
      "operator": "Alimerka",
      "shop": "supermarket"
    }
  },
  {
    "type": "node",
    "id": 9653734854,
    "lat": 43.5308441,
    "lon": -5.6683481,
    "tags": {
      "name": "Masymas",
      "opening_hours": "Mo-Sa 09:00-21:30",
      "operator": "Masymas",
      "shop": "supermarket",
      "wheelchair": "yes"
    }
  },
  {
    "type": "node",
    "id": 9653734855,
    "lat": 43.5300526,
    "lon": -5.6697831,
    "tags": {
      "brand": "Alimerka",
      "brand:wikidata": "Q16482738",
      "brand:wikipedia": "es:Alimerka",
      "name": "Alimerka",
      "operator": "Alimerka",
      "shop": "supermarket"
    }
  },
  {
    "type": "node",
    "id": 9656673730,
    "lat": 43.4774475,
    "lon": -5.4369696,
    "tags": {
      "addr:city": "Villaviciosa",
      "addr:housenumber": "3",
      "addr:street": "Calle Maximino Miyar",
      "brand": "Mercadona",
      "brand:wikidata": "Q377705",
      "name": "Mercadona",
      "opening_hours": "Mo-Sa 09:00-21:30",
      "phone": "+34 984 01 66 88",
      "shop": "supermarket"
    }
  },
  {
    "type": "node",
    "id": 9658998240,
    "lat": 43.3886661,
    "lon": -4.3962302,
    "tags": {
      "brand": "Covirán",
      "brand:wikidata": "Q61070539",
      "brand:wikipedia": "eu:Covirán",
      "name": "Covirán",
      "name:es": "Covirán",
      "name:pt": "Coviran",
      "opening_hours": "Mo-Sa 09:00-14:00,17:00-21:00",
      "shop": "supermarket",
      "source:opening_hours": "entrance"
    }
  },
  {
    "type": "node",
    "id": 9658998241,
    "lat": 43.3887684,
    "lon": -4.3969159,
    "tags": {
      "name": "Minymas",
      "shop": "supermarket"
    }
  },
  {
    "type": "node",
    "id": 9689244106,
    "lat": 43.4627165,
    "lon": -5.0572359,
    "tags": {
      "name": "minymas tiendas",
      "phone": "+34 985 860 817",
      "shop": "supermarket",
      "website": "https://www.supermasymas.com/"
    }
  },
  {
    "type": "node",
    "id": 9727293176,
    "lat": 43.3750245,
    "lon": -4.5413187,
    "tags": {
      "name": "Minymas",
      "shop": "supermarket"
    }
  },
  {
    "type": "node",
    "id": 9763821559,
    "lat": 43.3966003,
    "lon": -4.6365889,
    "tags": {
      "name": "Supermercado",
      "shop": "supermarket"
    }
  },
  {
    "type": "node",
    "id": 9826504393,
    "lat": 43.5685684,
    "lon": -6.9439917,
    "tags": {
      "name": "Claudio Express",
      "shop": "supermarket"
    }
  },
  {
    "type": "node",
    "id": 9833796817,
    "lat": 43.4822744,
    "lon": -5.4337039,
    "tags": {
      "addr:postcode": "33300",
      "addr:street": "Calle de la Magdalena",
      "brand": "Alcampo",
      "brand:wikidata": "Q2832081",
      "name": "Alcampo",
      "opening_hours": "Mo-Sa 09:00-21:30",
      "phone": "+34 912 17 04 53",
      "shop": "supermarket"
    }
  },
  {
    "type": "node",
    "id": 9919051317,
    "lat": 43.3652464,
    "lon": -5.8424208,
    "tags": {
      "addr:city": "Oviedo",
      "addr:street": "Calle de los Aparejadores",
      "brand": "Mercadona",
      "brand:wikidata": "Q377705",
      "diet:halal": "no",
      "diet:kosher": "no",
      "name": "Mercadona",
      "opening_hours": "Mo-Su 09:00-21:30",
      "shop": "supermarket",
      "wheelchair": "yes"
    }
  },
  {
    "type": "node",
    "id": 9920767522,
    "lat": 43.5342226,
    "lon": -5.665195,
    "tags": {
      "brand": "Alimerka",
      "brand:wikidata": "Q16482738",
      "brand:wikipedia": "es:Alimerka",
      "name": "Alimerka",
      "shop": "supermarket"
    }
  },
  {
    "type": "node",
    "id": 9920774471,
    "lat": 43.527237,
    "lon": -5.6640422,
    "tags": {
      "brand": "Dia",
      "brand:wikidata": "Q925132",
      "name": "Dia",
      "opening_hours": "Mo-Sa 09:00-21:30",
      "shop": "supermarket"
    }
  },
  {
    "type": "node",
    "id": 10082472044,
    "lat": 43.3659742,
    "lon": -5.8629246,
    "tags": {
      "addr:city": "Oviedo",
      "addr:housenumber": "6",
      "addr:postcode": "33012",
      "addr:street": "Calle Víctor Hevia",
      "name": "minymas tiendas",
      "shop": "supermarket"
    }
  },
  {
    "type": "node",
    "id": 10085819985,
    "lat": 43.3671819,
    "lon": -5.8526534,
    "tags": {
      "addr:city": "Oviedo",
      "addr:housenumber": "16",
      "addr:postcode": "33001",
      "addr:street": "Avenida de Santander",
      "brand": "Primaprix",
      "brand:wikidata": "Q112691161",
      "check_date": "2025-05-15",
      "name": "Primaprix",
      "shop": "supermarket"
    }
  },
  {
    "type": "node",
    "id": 10089970817,
    "lat": 43.3631919,
    "lon": -5.8675383,
    "tags": {
      "addr:city": "Oviedo/Uviéu",
      "addr:housenumber": "36",
      "addr:postcode": "33013",
      "addr:street": "Calle Fraternidad",
      "brand": "masymas",
      "brand:wikidata": "Q6135987",
      "name": "masymas",
      "operator": "Hijos de Luis Rodríguez, S.A.",
      "operator:wikidata": "Q111520108",
      "shop": "supermarket"
    }
  },
  {
    "type": "node",
    "id": 10098601565,
    "lat": 43.3847845,
    "lon": -5.81398,
    "tags": {
      "addr:city": "Oviedo",
      "addr:housenumber": "8",
      "addr:postcode": "33011",
      "addr:street": "Calle Arroyo Vaqueros",
      "name": "minymas tiendas",
      "shop": "supermarket"
    }
  },
  {
    "type": "node",
    "id": 10115150103,
    "lat": 43.3671653,
    "lon": -5.8292107,
    "tags": {
      "addr:city": "Oviedo",
      "addr:housenumber": "4",
      "addr:postcode": "33010",
      "addr:street": "Calle Río Ibias",
      "brand": "Alimerka",
      "brand:wikidata": "Q16482738",
      "name": "Alimerka",
      "shop": "supermarket"
    }
  },
  {
    "type": "node",
    "id": 10152685141,
    "lat": 43.3613951,
    "lon": -5.8471983,
    "tags": {
      "addr:city": "Oviedo",
      "addr:housenumber": "14",
      "addr:postcode": "33007",
      "addr:street": "Calle Fruela",
      "brand": "Primaprix",
      "brand:wikidata": "Q112691161",
      "check_date": "2025-12-10",
      "name": "Primaprix",
      "shop": "supermarket"
    }
  },
  {
    "type": "node",
    "id": 10162679037,
    "lat": 43.3891714,
    "lon": -5.8048749,
    "tags": {
      "addr:city": "Paredes",
      "addr:postcode": "33429",
      "brand": "masymas",
      "brand:wikidata": "Q6135987",
      "name": "masymas",
      "operator": "Hijos de Luis Rodríguez, S.A.",
      "operator:wikidata": "Q111520108",
      "shop": "supermarket"
    }
  },
  {
    "type": "node",
    "id": 10195136821,
    "lat": 43.3692268,
    "lon": -5.8451511,
    "tags": {
      "addr:city": "Oviedo-Uviéu",
      "addr:postcode": "33011",
      "addr:street": "Calle Benjamín Ortiz",
      "brand": "Primaprix",
      "brand:wikidata": "Q112691161",
      "name": "Primaprix",
      "shop": "supermarket"
    }
  },
  {
    "type": "node",
    "id": 10250473044,
    "lat": 43.5523497,
    "lon": -5.9319604,
    "tags": {
      "brand": "Dia",
      "brand:wikidata": "Q925132",
      "check_date": "2022-12-10",
      "name": "Dia",
      "shop": "supermarket",
      "wheelchair": "yes"
    }
  },
  {
    "type": "node",
    "id": 10250497186,
    "lat": 43.5531332,
    "lon": -5.9290585,
    "tags": {
      "check_date": "2022-12-10",
      "name": "La Quintana",
      "shop": "supermarket",
      "wheelchair": "yes"
    }
  },
  {
    "type": "node",
    "id": 10250497195,
    "lat": 43.5545518,
    "lon": -5.9289249,
    "tags": {
      "brand": "Alcampo",
      "brand:wikidata": "Q2832081",
      "check_date": "2023-09-10",
      "name": "Alcampo",
      "operator": "Alcampo",
      "shop": "supermarket",
      "wheelchair": "yes"
    }
  },
  {
    "type": "node",
    "id": 10250643464,
    "lat": 43.5522413,
    "lon": -5.9281568,
    "tags": {
      "addr:housenumber": "2",
      "addr:street": "Calle Doctor Marañón",
      "brand": "Alimerka",
      "brand:wikidata": "Q16482738",
      "check_date": "2022-12-10",
      "name": "Alimerka",
      "shop": "supermarket",
      "wheelchair": "yes"
    }
  },
  {
    "type": "node",
    "id": 10259701284,
    "lat": 43.3583204,
    "lon": -5.8465314,
    "tags": {
      "addr:city": "Oviedo",
      "addr:housenumber": "20",
      "addr:postcode": "33008",
      "addr:street": "Calle Campomanes",
      "name": "Familia",
      "opening_hours": "Mo-Sa 09:00-21:45",
      "shop": "supermarket"
    }
  },
  {
    "type": "node",
    "id": 10263358595,
    "lat": 43.3465364,
    "lon": -5.3623058,
    "tags": {
      "name": "La Ecotienda de Mila",
      "organic": "only",
      "shop": "supermarket"
    }
  },
  {
    "type": "node",
    "id": 10614343046,
    "lat": 43.3657126,
    "lon": -5.8672727,
    "tags": {
      "brand": "Alimerka",
      "brand:wikidata": "Q16482738",
      "name": "Alimerka",
      "shop": "supermarket"
    }
  },
  {
    "type": "node",
    "id": 10693605036,
    "lat": 43.5347565,
    "lon": -5.669695,
    "tags": {
      "brand": "masymas",
      "brand:wikidata": "Q6135987",
      "name": "masymas",
      "opening_hours": "Mo-Sa 09:00-21:30",
      "operator": "Hijos de Luis Rodríguez, S.A.",
      "operator:wikidata": "Q111520108",
      "shop": "supermarket"
    }
  },
  {
    "type": "node",
    "id": 10764629112,
    "lat": 43.3639577,
    "lon": -5.8523004,
    "tags": {
      "addr:city": "Oviedo",
      "addr:housenumber": "4",
      "addr:postcode": "33004",
      "addr:street": "Calle Gil de Jaz",
      "name": "Rodera",
      "shop": "supermarket"
    }
  },
  {
    "type": "node",
    "id": 10777403632,
    "lat": 43.3869299,
    "lon": -5.8253599,
    "tags": {
      "addr:city": "Oviedo",
      "addr:housenumber": "6",
      "addr:postcode": "33011",
      "addr:street": "Plaza Juanin de Mieres",
      "name": "minymas tiendas",
      "shop": "supermarket"
    }
  },
  {
    "type": "node",
    "id": 10777519039,
    "lat": 43.3566381,
    "lon": -5.8590562,
    "tags": {
      "addr:city": "Oviedo",
      "addr:housenumber": "1",
      "addr:postcode": "33006",
      "addr:street": "Calle Guillermo Estrada",
      "name": "minymas tiendas",
      "shop": "supermarket"
    }
  },
  {
    "type": "node",
    "id": 10777530846,
    "lat": 43.3580114,
    "lon": -5.8706233,
    "tags": {
      "addr:city": "Oviedo",
      "addr:housenumber": "100",
      "addr:postcode": "33006",
      "addr:street": "Calle Fuertes Acevedo",
      "name": "minymas tiendas",
      "shop": "supermarket"
    }
  },
  {
    "type": "node",
    "id": 10781610212,
    "lat": 43.3668429,
    "lon": -5.8510109,
    "tags": {
      "addr:city": "Oviedo",
      "addr:housenumber": "25",
      "addr:postcode": "33001",
      "addr:street": "Calle Fray Ceferino",
      "brand": "masymas",
      "brand:wikidata": "Q6135987",
      "check_date": "2025-05-14",
      "name": "masymas",
      "operator": "Hijos de Luis Rodríguez, S.A.",
      "operator:wikidata": "Q111520108",
      "shop": "supermarket"
    }
  },
  {
    "type": "node",
    "id": 10793958059,
    "lat": 43.5098539,
    "lon": -5.6728659,
    "tags": {
      "addr:city": "Gijón",
      "addr:housenumber": "1180",
      "addr:postcode": "33209",
      "addr:street": "Avenida de Roces",
      "brand": "Dia",
      "brand:wikidata": "Q925132",
      "name": "Dia",
      "opening_hours": "Mo-Sa 09:00-21:30",
      "payment:cash": "yes",
      "payment:credit_cards": "yes",
      "payment:debit_cards": "yes",
      "shop": "supermarket"
    }
  },
  {
    "type": "node",
    "id": 10816659024,
    "lat": 43.3680312,
    "lon": -5.8445538,
    "tags": {
      "addr:city": "Oviedo",
      "addr:housenumber": "22",
      "addr:postcode": "33001",
      "addr:street": "Avenida de Pumarín",
      "brand": "Spar",
      "brand:wikidata": "Q610492",
      "name": "Spar",
      "payment:credit_cards": "yes",
      "payment:debit_cards": "yes",
      "shop": "supermarket"
    }
  },
  {
    "type": "node",
    "id": 10816667376,
    "lat": 43.3626404,
    "lon": -5.865741,
    "tags": {
      "addr:city": "Oviedo",
      "addr:housenumber": "31",
      "addr:postcode": "33013",
      "addr:street": "Calle María Purificación Neira González",
      "brand": "Spar",
      "brand:wikidata": "Q610492",
      "name": "Spar",
      "shop": "supermarket"
    }
  },
  {
    "type": "node",
    "id": 10857770942,
    "lat": 43.3456685,
    "lon": -5.3616922,
    "tags": {
      "addr:housenumber": "1",
      "addr:street": "Calle Lueje",
      "name": "En Su Punto",
      "shop": "supermarket"
    }
  },
  {
    "type": "node",
    "id": 10980347227,
    "lat": 43.363899,
    "lon": -5.8435364,
    "tags": {
      "addr:city": "Oviedo",
      "addr:housenumber": "27",
      "addr:postcode": "33003",
      "addr:street": "Calle Jovellanos",
      "brand": "Covirán",
      "brand:wikidata": "Q61070539",
      "name": "Covirán",
      "name:es": "Covirán",
      "name:pt": "Coviran",
      "shop": "supermarket"
    }
  },
  {
    "type": "node",
    "id": 10980347228,
    "lat": 43.3693622,
    "lon": -5.8386523,
    "tags": {
      "addr:city": "Oviedo",
      "addr:housenumber": "5",
      "addr:postcode": "33011",
      "addr:street": "Calle Bermúdez de Castro",
      "brand": "Covirán",
      "brand:wikidata": "Q61070539",
      "name": "Covirán",
      "name:es": "Covirán",
      "name:pt": "Coviran",
      "shop": "supermarket"
    }
  },
  {
    "type": "node",
    "id": 10980353771,
    "lat": 43.367423,
    "lon": -5.8653209,
    "tags": {
      "addr:city": "Oviedo",
      "addr:housenumber": "4",
      "addr:postcode": "33012",
      "addr:street": "Calle Escultor Laviada",
      "brand": "Covirán",
      "brand:wikidata": "Q61070539",
      "name": "Covirán",
      "name:es": "Covirán",
      "name:pt": "Coviran",
      "shop": "supermarket"
    }
  },
  {
    "type": "node",
    "id": 11029806857,
    "lat": 43.3599269,
    "lon": -5.8563922,
    "tags": {
      "addr:city": "Oviedo",
      "addr:postcode": "33005",
      "addr:street": "Calle Carlos López Otín",
      "brand": "Alimerka",
      "brand:wikidata": "Q16482738",
      "name": "Alimerka",
      "shop": "supermarket"
    }
  },
  {
    "type": "node",
    "id": 11033926597,
    "lat": 43.1774263,
    "lon": -6.5530624,
    "tags": {
      "brand": "Dia",
      "brand:wikidata": "Q925132",
      "name": "Dia",
      "shop": "supermarket"
    }
  },
  {
    "type": "node",
    "id": 11099726454,
    "lat": 43.5396928,
    "lon": -5.6614439,
    "tags": {
      "brand": "Carrefour Express",
      "brand:wikidata": "Q2940190",
      "check_date": "2025-04-29",
      "name": "Carrefour Express",
      "opening_hours": "Mo-Su 09:00-21:30",
      "shop": "supermarket",
      "source": "survey",
      "surveillance": "yes",
      "surveillance:type": "camera"
    }
  },
  {
    "type": "node",
    "id": 11099974289,
    "lat": 43.4361977,
    "lon": -5.7981574,
    "tags": {
      "name": "Minymas Tiendas",
      "shop": "supermarket"
    }
  },
  {
    "type": "node",
    "id": 11099986663,
    "lat": 43.4375138,
    "lon": -5.7992172,
    "tags": {
      "name": "Minymas Tiendas",
      "shop": "supermarket"
    }
  },
  {
    "type": "node",
    "id": 11105798624,
    "lat": 43.536238,
    "lon": -5.6474883,
    "tags": {
      "brand": "masymas",
      "brand:wikidata": "Q6135987",
      "check_date": "2025-10-22",
      "fixme": "resurvey",
      "name": "masymas",
      "operator": "Hijos de Luis Rodríguez, S.A.",
      "operator:wikidata": "Q111520108",
      "payment:mastercard": "yes",
      "payment:visa": "yes",
      "shop": "supermarket",
      "stroller": "yes",
      "wheelchair": "yes"
    }
  },
  {
    "type": "node",
    "id": 11133459202,
    "lat": 43.5387819,
    "lon": -5.6993614,
    "tags": {
      "brand": "masymas",
      "brand:wikidata": "Q6135987",
      "check_date": "2025-03-06",
      "check_date:opening_hours": "2025-03-06",
      "name": "masymas",
      "opening_hours": "Mo-Sa 09:00-21:30",
      "operator": "Hijos de Luis Rodríguez, S.A.",
      "operator:wikidata": "Q111520108",
      "shop": "supermarket",
      "wheelchair": "yes"
    }
  },
  {
    "type": "node",
    "id": 11150213386,
    "lat": 43.3692746,
    "lon": -5.8458882,
    "tags": {
      "addr:city": "Oviedo-Uviéu",
      "addr:postcode": "33011",
      "addr:street": "Calle Benjamín Ortiz",
      "name": "Mycash",
      "payment:cash": "yes",
      "payment:credit_cards": "yes",
      "payment:debit_cards": "yes",
      "shop": "supermarket"
    }
  },
  {
    "type": "node",
    "id": 11197716465,
    "lat": 43.546521,
    "lon": -5.8707838,
    "tags": {
      "addr:city": "Tresona",
      "addr:housenumber": "50",
      "addr:postcode": "33468",
      "addr:street": "El Pedréu",
      "brand": "Carrefour",
      "brand:wikidata": "Q217599",
      "check_date": "2025-03-05",
      "name": "Carrefour",
      "opening_hours": "Mo-Sa 09:00-21:00",
      "payment:cash": "yes",
      "payment:credit_cards": "yes",
      "payment:debit_cards": "yes",
      "phone": "+34985514617",
      "shop": "supermarket",
      "wheelchair": "yes"
    }
  },
  {
    "type": "node",
    "id": 11206154577,
    "lat": 43.4865291,
    "lon": -6.1110986,
    "tags": {
      "name": "Familia",
      "shop": "supermarket"
    }
  },
  {
    "type": "node",
    "id": 11206154580,
    "lat": 43.4875076,
    "lon": -6.1110866,
    "tags": {
      "brand": "Alcampo",
      "brand:wikidata": "Q2832081",
      "name": "Alcampo",
      "shop": "supermarket"
    }
  },
  {
    "type": "node",
    "id": 11206154588,
    "lat": 43.4869659,
    "lon": -6.1122104,
    "tags": {
      "brand": "Alimerka",
      "brand:wikidata": "Q16482738",
      "name": "Alimerka",
      "shop": "supermarket"
    }
  },
  {
    "type": "node",
    "id": 11373213062,
    "lat": 43.5506714,
    "lon": -5.9159279,
    "tags": {
      "brand": "masymas",
      "brand:wikidata": "Q6135987",
      "check_date": "2025-03-05",
      "check_date:opening_hours": "2025-03-05",
      "name": "masymas",
      "opening_hours": "Mo-Sa 09:00-21:30",
      "operator": "Hijos de Luis Rodríguez, S.A.",
      "operator:wikidata": "Q111520108",
      "shop": "supermarket",
      "wheelchair": "yes"
    }
  },
  {
    "type": "node",
    "id": 11378552382,
    "lat": 43.2760664,
    "lon": -5.6087162,
    "tags": {
      "addr:city": "Sotrondio",
      "addr:housenumber": "25",
      "addr:postcode": "33950",
      "addr:street": "Paseo de San Martin",
      "brand": "El Arco",
      "name": "El Economato",
      "opening_hours": "Mo-Sa 08:00-15:00",
      "payment:cash": "yes",
      "payment:coins": "yes",
      "payment:credit_cards": "yes",
      "payment:debit_cards": "yes",
      "payment:mastercard": "yes",
      "payment:notes": "yes",
      "payment:visa": "yes",
      "phone": "+34985670510",
      "shop": "supermarket",
      "website": "https://www.elarco.es/"
    }
  },
  {
    "type": "node",
    "id": 11379880974,
    "lat": 43.5584112,
    "lon": -5.9270653,
    "tags": {
      "brand": "Alimerka",
      "brand:wikidata": "Q16482738",
      "name": "Alimerka",
      "shop": "supermarket"
    }
  },
  {
    "type": "node",
    "id": 11381935778,
    "lat": 43.3687624,
    "lon": -5.8232813,
    "tags": {
      "brand": "Covirán",
      "brand:wikidata": "Q61070539",
      "name": "Covirán",
      "name:es": "Covirán",
      "name:pt": "Coviran",
      "shop": "supermarket"
    }
  },
  {
    "type": "node",
    "id": 11532509179,
    "lat": 43.3681287,
    "lon": -5.8253402,
    "tags": {
      "addr:city": "Oviedo",
      "addr:housenumber": "28",
      "addr:postcode": "33010",
      "addr:street": "Calle Río Narcea",
      "brand": "Dia",
      "brand:wikidata": "Q925132",
      "name": "Dia",
      "shop": "supermarket"
    }
  },
  {
    "type": "node",
    "id": 11674081814,
    "lat": 43.363302,
    "lon": -5.8621643,
    "tags": {
      "name": "Magazin Românesc",
      "shop": "supermarket"
    }
  },
  {
    "type": "node",
    "id": 11682267475,
    "lat": 43.3638108,
    "lon": -5.8659934,
    "tags": {
      "name": "Kashtan",
      "shop": "supermarket"
    }
  },
  {
    "type": "node",
    "id": 11704036603,
    "lat": 42.9372865,
    "lon": -6.321596,
    "tags": {
      "brand": "Covirán",
      "brand:wikidata": "Q61070539",
      "name": "Covirán",
      "name:es": "Covirán",
      "name:pt": "Coviran",
      "shop": "supermarket"
    }
  },
  {
    "type": "node",
    "id": 11704036607,
    "lat": 42.9399088,
    "lon": -6.3241867,
    "tags": {
      "name": "Supermercados Riosil",
      "shop": "supermarket"
    }
  },
  {
    "type": "node",
    "id": 11816437139,
    "lat": 43.4468519,
    "lon": -7.1953621,
    "tags": {
      "brand": "Spar",
      "brand:wikidata": "Q610492",
      "name": "Spar",
      "shop": "supermarket"
    }
  },
  {
    "type": "node",
    "id": 11839195637,
    "lat": 43.358149,
    "lon": -5.5103496,
    "tags": {
      "brand": "Alimerka",
      "brand:wikidata": "Q16482738",
      "name": "Alimerka",
      "shop": "supermarket"
    }
  },
  {
    "type": "node",
    "id": 11839195638,
    "lat": 43.3585898,
    "lon": -5.5087278,
    "tags": {
      "brand": "masymas",
      "brand:wikidata": "Q6135987",
      "name": "masymas",
      "operator": "Hijos de Luis Rodríguez, S.A.",
      "operator:wikidata": "Q111520108",
      "shop": "supermarket"
    }
  },
  {
    "type": "node",
    "id": 11928787805,
    "lat": 43.5371459,
    "lon": -5.90419,
    "tags": {
      "name": "Comprand",
      "shop": "supermarket"
    }
  },
  {
    "type": "node",
    "id": 11983621169,
    "lat": 43.3885678,
    "lon": -6.0696788,
    "tags": {
      "addr:city": "Grado/Grau",
      "brand": "Alimerka",
      "brand:wikidata": "Q16482738",
      "name": "Alimerka",
      "opening_hours": "Mo-Sa 09:00-21:30",
      "shop": "supermarket"
    }
  },
  {
    "type": "node",
    "id": 12037527629,
    "lat": 43.3622245,
    "lon": -5.8645076,
    "tags": {
      "name": "Supermercado El Norte",
      "shop": "supermarket"
    }
  },
  {
    "type": "node",
    "id": 12040272471,
    "lat": 43.1536781,
    "lon": -5.8270404,
    "tags": {
      "name": "minymas",
      "shop": "supermarket"
    }
  },
  {
    "type": "node",
    "id": 12084943482,
    "lat": 43.2048704,
    "lon": -5.7906411,
    "tags": {
      "brand": "Dia",
      "brand:wikidata": "Q925132",
      "name": "Dia",
      "payment:cash": "yes",
      "payment:coins": "yes",
      "payment:contactless": "yes",
      "payment:credit_cards": "yes",
      "payment:debit_cards": "yes",
      "payment:mastercard": "yes",
      "payment:visa": "yes",
      "shop": "supermarket"
    }
  },
  {
    "type": "node",
    "id": 12090794837,
    "lat": 43.2285379,
    "lon": -5.7812706,
    "tags": {
      "brand": "Carrefour",
      "brand:wikidata": "Q217599",
      "name": "Carrefour",
      "shop": "supermarket"
    }
  },
  {
    "type": "node",
    "id": 12090820887,
    "lat": 43.2316305,
    "lon": -5.7794837,
    "tags": {
      "name": "MyCash",
      "shop": "supermarket"
    }
  },
  {
    "type": "node",
    "id": 12093062301,
    "lat": 43.3852879,
    "lon": -6.0768448,
    "tags": {
      "name": "Corviran",
      "shop": "supermarket"
    }
  },
  {
    "type": "node",
    "id": 12095870202,
    "lat": 43.3353729,
    "lon": -6.4113732,
    "tags": {
      "name": "Dia",
      "shop": "supermarket"
    }
  },
  {
    "type": "node",
    "id": 12112069445,
    "lat": 43.538085,
    "lon": -5.6540412,
    "tags": {
      "name": "Autoservicios Familia",
      "opening_hours": "Mo-Sa 09:00-21:30",
      "phone": "+34 985331929;+34 944050514",
      "shop": "supermarket",
      "website": "https://www.familiaonline.es/"
    }
  },
  {
    "type": "node",
    "id": 12112069446,
    "lat": 43.5270475,
    "lon": -5.6682011,
    "tags": {
      "name": "Autoservicios Familia",
      "phone": "+34 985151081;+34 944050514",
      "shop": "supermarket",
      "website": "https://www.familiaonline.es/"
    }
  },
  {
    "type": "node",
    "id": 12112069447,
    "lat": 43.5579709,
    "lon": -5.9284015,
    "tags": {
      "name": "Autoservicios Familia",
      "phone": "+34 985564934;+34 944050514",
      "shop": "supermarket",
      "website": "https://www.familiaonline.es/"
    }
  },
  {
    "type": "node",
    "id": 12120850710,
    "lat": 43.3503695,
    "lon": -5.1297861,
    "tags": {
      "brand": "Dia",
      "brand:wikidata": "Q925132",
      "check_date": "2024-08-19",
      "name": "Dia",
      "shop": "supermarket"
    }
  },
  {
    "type": "node",
    "id": 12128996502,
    "lat": 43.4833695,
    "lon": -5.4336704,
    "tags": {
      "addr:postcode": "33300",
      "addr:street": "Calle Víctor García de la Concha",
      "name": "Minymas",
      "shop": "supermarket"
    }
  },
  {
    "type": "node",
    "id": 12132566101,
    "lat": 43.4823188,
    "lon": -5.4337958,
    "tags": {
      "addr:postcode": "33300",
      "addr:street": "Calle Lealtad",
      "brand": "Alcampo",
      "brand:wikidata": "Q2832081",
      "name": "Alcampo",
      "opening_hours": "Mo-Sa 09:00-21:30",
      "shop": "supermarket"
    }
  },
  {
    "type": "node",
    "id": 12132830901,
    "lat": 43.4838786,
    "lon": -5.4330716,
    "tags": {
      "addr:housenumber": "16",
      "addr:postcode": "33300",
      "addr:street": "Calle Víctor García de la Concha",
      "name": "Los Bayos",
      "shop": "supermarket"
    }
  },
  {
    "type": "node",
    "id": 12192598967,
    "lat": 43.527114,
    "lon": -5.6672675,
    "tags": {
      "name": "Familia",
      "shop": "supermarket"
    }
  },
  {
    "type": "node",
    "id": 12255901670,
    "lat": 43.3684,
    "lon": -5.845043,
    "tags": {
      "addr:city": "Oviedo",
      "addr:street": "Calle Joaquina Bobela",
      "brand": "Alimerka",
      "brand:wikidata": "Q16482738",
      "name": "Alimerka",
      "shop": "supermarket"
    }
  },
  {
    "type": "node",
    "id": 12255928048,
    "lat": 43.3569633,
    "lon": -5.8514919,
    "tags": {
      "addr:city": "Oviedo",
      "name": "minymas tiendas",
      "shop": "supermarket"
    }
  },
  {
    "type": "node",
    "id": 12255928049,
    "lat": 43.3715305,
    "lon": -5.8362318,
    "tags": {
      "name": "minymas tiendas",
      "shop": "supermarket"
    }
  },
  {
    "type": "node",
    "id": 12287416257,
    "lat": 43.5168329,
    "lon": -5.6820562,
    "tags": {
      "addr:city": "Gijón",
      "brand": "Minymas",
      "name": "Minymas",
      "shop": "supermarket"
    }
  },
  {
    "type": "node",
    "id": 12565590033,
    "lat": 43.3107882,
    "lon": -5.6948212,
    "tags": {
      "addr:city": "Langreo / Llangréu",
      "addr:postcode": "33930",
      "addr:street": "Calle Marqués de Bolarque",
      "brand": "Alimerka",
      "brand:wikidata": "Q16482738",
      "name": "Alimerka",
      "shop": "supermarket"
    }
  },
  {
    "type": "node",
    "id": 12639059616,
    "lat": 43.5496083,
    "lon": -5.9167731,
    "tags": {
      "brand": "Alimerka",
      "brand:wikidata": "Q16482738",
      "name": "Alimerka",
      "shop": "supermarket",
      "wheelchair": "yes"
    }
  },
  {
    "type": "node",
    "id": 12640759896,
    "lat": 43.5393314,
    "lon": -5.6890828,
    "tags": {
      "brand": "Alimerka",
      "brand:wikidata": "Q16482738",
      "name": "Alimerka",
      "shop": "supermarket",
      "wheelchair": "yes"
    }
  },
  {
    "type": "node",
    "id": 12640825737,
    "lat": 43.5390458,
    "lon": -5.6975658,
    "tags": {
      "brand": "Dia",
      "brand:wikidata": "Q925132",
      "name": "Dia",
      "shop": "supermarket",
      "wheelchair": "yes"
    }
  },
  {
    "type": "node",
    "id": 12640988196,
    "lat": 43.5311484,
    "lon": -5.6450931,
    "tags": {
      "brand": "Supercor",
      "brand:wikidata": "Q6135841",
      "name": "Supercor",
      "opening_hours": "Mo-Sa 09:00-21:30",
      "shop": "supermarket",
      "wheelchair": "yes"
    }
  },
  {
    "type": "node",
    "id": 12643576729,
    "lat": 43.4266061,
    "lon": -4.8627635,
    "tags": {
      "brand": "Alcampo",
      "brand:wikidata": "Q2832081",
      "name": "Alcampo",
      "shop": "supermarket",
      "wheelchair": "yes"
    }
  },
  {
    "type": "node",
    "id": 12643612515,
    "lat": 43.4226953,
    "lon": -4.7627059,
    "tags": {
      "brand": "Alimerka",
      "brand:wikidata": "Q16482738",
      "brand:wikipedia": "es:Alimerka",
      "name": "Alimerka",
      "opening_hours": "Mo-Sa 09:00-21:30",
      "shop": "supermarket",
      "wheelchair": "yes"
    }
  },
  {
    "type": "node",
    "id": 12909877140,
    "lat": 43.2538954,
    "lon": -4.4075078,
    "tags": {
      "name": "Chelo",
      "opening_hours": "Mo-Fr 09:30-14:00, 17:00-20:00; Sa 09:30-14:00; Su 11:00-14:00",
      "shop": "supermarket"
    }
  },
  {
    "type": "node",
    "id": 12966838679,
    "lat": 43.389273,
    "lon": -5.1867442,
    "tags": {
      "brand": "Alcampo",
      "brand:wikidata": "Q2832081",
      "name": "Alcampo",
      "opening_hours": "Mo-Sa 09:00-21:30",
      "shop": "supermarket"
    }
  },
  {
    "type": "node",
    "id": 13016964001,
    "lat": 43.5457191,
    "lon": -6.6065183,
    "tags": {
      "addr:postcode": "33792",
      "addr:street": "Barrio de Río Mayor",
      "name": "Campoastur Otur Café Supermercado",
      "phone": "+34985641721",
      "shop": "supermarket",
      "website": "https://campoastur.es"
    }
  },
  {
    "type": "node",
    "id": 13032075681,
    "lat": 43.3831992,
    "lon": -5.784319,
    "tags": {
      "name": "Ultracash",
      "shop": "supermarket"
    }
  },
  {
    "type": "node",
    "id": 13059517497,
    "lat": 43.5604191,
    "lon": -5.9245014,
    "tags": {
      "check_date": "2025-08-09",
      "name": "Prima Prix",
      "shop": "supermarket",
      "wheelchair": "yes"
    }
  },
  {
    "type": "node",
    "id": 13075822947,
    "lat": 43.5560765,
    "lon": -5.9262581,
    "tags": {
      "addr:housenumber": "17",
      "addr:street": "Calle Fernández Balsera",
      "brand": "Supercor",
      "brand:wikidata": "Q6135841",
      "check_date": "2025-08-17",
      "name": "Supercor",
      "shop": "supermarket",
      "wheelchair": "yes"
    }
  },
  {
    "type": "node",
    "id": 13112335872,
    "lat": 43.2483413,
    "lon": -5.7735235,
    "tags": {
      "addr:city": "Mieres del Camín",
      "addr:housenumber": "26",
      "addr:postcode": "33600",
      "addr:street": "Cai La Vega",
      "brand": "Dia",
      "brand:wikidata": "Q925132",
      "name": "Dia",
      "opening_hours": "Mo-Sa 09:00-21:30",
      "shop": "supermarket"
    }
  },
  {
    "type": "node",
    "id": 13114153001,
    "lat": 43.2476721,
    "lon": -5.7753052,
    "tags": {
      "addr:city": "Mieres del Camín",
      "addr:housenumber": "42",
      "addr:postcode": "33600",
      "addr:street": "Cai Martínez de Vega",
      "brand": "Dia",
      "brand:wikidata": "Q925132",
      "name": "Dia",
      "opening_hours": "Mo-Sa 09:00-21:00",
      "shop": "supermarket"
    }
  },
  {
    "type": "node",
    "id": 13114233546,
    "lat": 43.2478746,
    "lon": -5.7762358,
    "tags": {
      "addr:city": "Mieres del Camín",
      "addr:housenumber": "43",
      "addr:postcode": "33600",
      "addr:street": "Cai Valeriano Miranda",
      "brand": "masymas",
      "brand:wikidata": "Q6135987",
      "name": "masymas",
      "operator": "Hijos de Luis Rodríguez, S.A.",
      "operator:wikidata": "Q111520108",
      "shop": "supermarket"
    }
  },
  {
    "type": "node",
    "id": 13115952710,
    "lat": 43.2545086,
    "lon": -5.7783246,
    "tags": {
      "brand": "Spar",
      "brand:wikidata": "Q610492",
      "name": "Spar",
      "shop": "supermarket"
    }
  },
  {
    "type": "node",
    "id": 13162803065,
    "lat": 43.3648418,
    "lon": -5.8542453,
    "tags": {
      "name": "Nacarava Mini Market",
      "shop": "supermarket"
    }
  },
  {
    "type": "node",
    "id": 13162971650,
    "lat": 43.2513375,
    "lon": -5.7754566,
    "tags": {
      "addr:city": "Mieres del Camín",
      "addr:housenumber": "10,12",
      "addr:postcode": "33600",
      "addr:street": "Cai Armando Palacio Valdés",
      "name": "Alimentación El Prado",
      "shop": "supermarket"
    }
  },
  {
    "type": "node",
    "id": 13173329101,
    "lat": 43.5517912,
    "lon": -6.08799,
    "tags": {
      "name": "Coviran",
      "shop": "supermarket"
    }
  },
  {
    "type": "node",
    "id": 13173336306,
    "lat": 43.5533531,
    "lon": -6.0865159,
    "tags": {
      "name": "Vagamar",
      "shop": "supermarket"
    }
  },
  {
    "type": "node",
    "id": 13190502232,
    "lat": 43.5239632,
    "lon": -6.0747941,
    "tags": {
      "brand": "masymas",
      "brand:wikidata": "Q6135987",
      "name": "masymas",
      "operator": "Hijos de Luis Rodríguez, S.A.",
      "operator:wikidata": "Q111520108",
      "shop": "supermarket"
    }
  },
  {
    "type": "node",
    "id": 13198148101,
    "lat": 43.550636,
    "lon": -5.9184737,
    "tags": {
      "addr:housenumber": "14",
      "addr:postcode": "33402",
      "addr:street": "Calle Gutiérrez Herrero",
      "name": "Comprand",
      "shop": "supermarket"
    }
  },
  {
    "type": "node",
    "id": 13231504577,
    "lat": 43.1827507,
    "lon": -5.3448878,
    "tags": {
      "addr:city": "El Campu",
      "shop": "supermarket"
    }
  },
  {
    "type": "node",
    "id": 13266788623,
    "lat": 43.3095072,
    "lon": -5.6922885,
    "tags": {
      "addr:city": "Langreo / Llangréu",
      "addr:housenumber": "10",
      "addr:postcode": "33930",
      "addr:street": "Calle Pedro Ponga",
      "brand": "masymas",
      "brand:wikidata": "Q6135987",
      "name": "masymas",
      "operator": "Hijos de Luis Rodríguez, S.A.",
      "operator:wikidata": "Q111520108",
      "shop": "supermarket"
    }
  },
  {
    "type": "node",
    "id": 13285382342,
    "lat": 43.507766,
    "lon": -5.6791817,
    "tags": {
      "addr:city": "Gijón",
      "addr:housenumber": "2230",
      "addr:postcode": "33211",
      "addr:street": "Carretera de la Carbonera",
      "name": "La Cooperativa",
      "phone": "+34 985 30 71 31",
      "shop": "supermarket"
    }
  },
  {
    "type": "node",
    "id": 13290560734,
    "lat": 43.5627213,
    "lon": -6.146487,
    "tags": {
      "brand": "Covirán",
      "brand:wikidata": "Q61070539",
      "name": "Covirán",
      "name:es": "Covirán",
      "name:pt": "Coviran",
      "shop": "supermarket"
    }
  },
  {
    "type": "way",
    "id": 4813769,
    "center": {
      "lat": 43.5361473,
      "lon": -5.6955894
    },
    "tags": {
      "addr:city": "Gijón",
      "brand": "Carrefour",
      "brand:wikidata": "Q217599",
      "brand:wikipedia": "fr:Carrefour (enseigne)",
      "building": "retail",
      "height": "6",
      "name": "Carrefour",
      "shop": "supermarket",
      "wheelchair": "yes"
    }
  },
  {
    "type": "way",
    "id": 15220537,
    "center": {
      "lat": 43.5374326,
      "lon": -5.6869396
    },
    "tags": {
      "addr:city": "Gijón",
      "building": "supermarket",
      "building:levels": "1",
      "name": "SPAR",
      "opening_hours": "Tu-Sa 09:00-21:00",
      "shop": "supermarket",
      "wheelchair": "yes"
    }
  },
  {
    "type": "way",
    "id": 23657728,
    "center": {
      "lat": 43.3889863,
      "lon": -5.818866
    },
    "tags": {
      "addr:city": "Oviedo",
      "brand": "Mercadona",
      "brand:wikidata": "Q377705",
      "brand:wikipedia": "es:Mercadona",
      "building": "retail",
      "name": "Mercadona",
      "shop": "supermarket",
      "website": "https://www.mercadona.es",
      "wheelchair": "yes"
    }
  },
  {
    "type": "way",
    "id": 33922804,
    "center": {
      "lat": 43.4108122,
      "lon": -5.7915261
    },
    "tags": {
      "addr:city": "Urbanización La Fresneda",
      "addr:postcode": "33429",
      "addr:street": "Camino de La Fresneda",
      "brand": "Alimerka",
      "brand:wikidata": "Q16482738",
      "brand:wikipedia": "es:Alimerka",
      "building": "yes",
      "name": "Alimerka",
      "operator": "Alimerka",
      "shop": "supermarket"
    }
  },
  {
    "type": "way",
    "id": 53208593,
    "center": {
      "lat": 43.38127,
      "lon": -5.8278481
    },
    "tags": {
      "brand": "Alimerka",
      "brand:wikidata": "Q16482738",
      "brand:wikipedia": "es:Alimerka",
      "building": "commercial",
      "name": "Alimerka",
      "operator": "Alimerka",
      "shop": "supermarket",
      "wheelchair": "yes"
    }
  },
  {
    "type": "way",
    "id": 55226965,
    "center": {
      "lat": 43.4138247,
      "lon": -5.7958742
    },
    "tags": {
      "brand": "Carrefour",
      "brand:wikidata": "Q217599",
      "brand:wikipedia": "fr:Carrefour (enseigne)",
      "building": "yes",
      "name": "Carrefour",
      "opening_hours": "Mo-Sa 10:00-22:00",
      "shop": "supermarket"
    }
  },
  {
    "type": "way",
    "id": 64002204,
    "center": {
      "lat": 43.3661912,
      "lon": -5.8732464
    },
    "tags": {
      "addr:housenumber": "2",
      "addr:street": "Calle Cudillero",
      "brand": "Lidl",
      "brand:website": "https://www.lidl.es",
      "brand:wikidata": "Q151954",
      "brand:wikipedia": "en:Lidl",
      "building": "retail",
      "name": "Lidl",
      "shop": "supermarket",
      "source": "Bing"
    }
  },
  {
    "type": "way",
    "id": 83306419,
    "center": {
      "lat": 43.5359382,
      "lon": -7.0432752
    },
    "tags": {
      "addr:city": "Ribadeo",
      "addr:postcode": "27700",
      "addr:street": "Rúa José Vicente Pérez Martínez",
      "amenity": "marketplace",
      "building": "yes",
      "description": "Mercado doado por D. Ramón González Fernández no ano 1925",
      "name": "Praza de Abastos",
      "name:es": "Plaza de Abastos",
      "name:gl": "Praza de Abastos",
      "operator": "Concello de Ribadeo",
      "shop": "supermarket"
    }
  },
  {
    "type": "way",
    "id": 84963298,
    "center": {
      "lat": 43.5107704,
      "lon": -5.6936697
    },
    "tags": {
      "addr:city": "Gijón",
      "brand": "Alcampo",
      "brand:wikidata": "Q2832081",
      "brand:wikipedia": "es:Alcampo",
      "building": "retail",
      "name": "Alcampo",
      "opening_hours": "Mo-Sa 09:00-22:00",
      "shop": "supermarket",
      "source": "PNOA",
      "source:date": "2009"
    }
  },
  {
    "type": "way",
    "id": 116952923,
    "center": {
      "lat": 43.4064654,
      "lon": -4.759659
    },
    "tags": {
      "addr:city": "Llanes",
      "brand": "masymas",
      "brand:wikidata": "Q6135987",
      "brand:wikipedia": "es:Supermercados Masymas",
      "building": "yes",
      "name": "masymas",
      "operator": "Hijos de Luis Rodríguez, S.A.",
      "operator:wikidata": "Q111520108",
      "shop": "supermarket",
      "source": "PNOA;survey",
      "website": "http://www.masymas.es/"
    }
  },
  {
    "type": "way",
    "id": 123916584,
    "center": {
      "lat": 43.5363875,
      "lon": -5.9071575
    },
    "tags": {
      "brand": "Alimerka",
      "brand:wikidata": "Q16482738",
      "brand:wikipedia": "es:Alimerka",
      "building": "supermarket",
      "name": "Alimerka",
      "shop": "supermarket",
      "toilets:wheelchair": "yes",
      "wheelchair": "yes"
    }
  },
  {
    "type": "way",
    "id": 148686229,
    "center": {
      "lat": 43.5370733,
      "lon": -5.9061671
    },
    "tags": {
      "brand": "Dia",
      "brand:wikidata": "Q925132",
      "brand:wikipedia": "es:DIA (supermercados)",
      "building": "yes",
      "name": "Dia",
      "shop": "supermarket"
    }
  },
  {
    "type": "way",
    "id": 155078282,
    "center": {
      "lat": 43.562085,
      "lon": -6.9222884
    },
    "tags": {
      "addr:housenumber": "145",
      "brand": "Alimerka",
      "brand:wikidata": "Q16482738",
      "brand:wikipedia": "es:Alimerka",
      "building": "retail",
      "building:levels": "1",
      "check_date": "2025-03-04",
      "check_date:opening_hours": "2025-03-04",
      "internet_access": "wlan",
      "internet_access:fee": "no",
      "landuse": "retail",
      "name": "Alimerka",
      "opening_hours": "Mo-Sa 09:00-21:30",
      "roof:levels": "0",
      "shop": "supermarket",
      "wheelchair": "yes"
    }
  },
  {
    "type": "way",
    "id": 172233622,
    "center": {
      "lat": 43.5405245,
      "lon": -7.0593504
    },
    "tags": {
      "brand": "Eroski",
      "brand:wikidata": "Q1361349",
      "brand:wikipedia": "en:Eroski",
      "building": "retail",
      "handwashing:soap": "yes",
      "name": "Eroski",
      "opening_hours": "09:30-21:00",
      "panoramax": "d585fc76-09c1-4f3c-a8c2-893b6f01daa3",
      "panoramax:0": "2eb85627-cf34-446b-a94d-9e2049c28b5d",
      "shop": "supermarket",
      "toilets": "yes",
      "toilets:access": "customers",
      "toilets:disposal": "flush",
      "toilets:fee": "no",
      "toilets:gender_segregated": "yes",
      "toilets:handwashing": "yes",
      "toilets:paper_supplied": "yes",
      "toilets:position": "seated",
      "wheelchair": "yes"
    }
  },
  {
    "type": "way",
    "id": 172233624,
    "center": {
      "lat": 43.5400259,
      "lon": -7.0583471
    },
    "tags": {
      "brand": "Lidl",
      "brand:website": "https://www.lidl.es",
      "brand:wikidata": "Q151954",
      "brand:wikipedia": "en:Lidl",
      "building": "retail",
      "building:levels": "1",
      "check_date": "2025-03-04",
      "internet_access": "wlan",
      "internet_access:fee": "no",
      "name": "Lidl",
      "opening_hours": "Mo-Sa 09:00-21:30",
      "roof:levels": "0",
      "shop": "supermarket",
      "wheelchair": "yes"
    }
  },
  {
    "type": "way",
    "id": 175673933,
    "center": {
      "lat": 43.5112299,
      "lon": -5.6891641
    },
    "tags": {
      "brand": "Lidl",
      "brand:website": "https://www.lidl.es",
      "brand:wikidata": "Q151954",
      "brand:wikipedia": "en:Lidl",
      "building": "commercial",
      "name": "Lidl",
      "opening_hours": "Mo-Sa 09:00-21:30",
      "shop": "supermarket"
    }
  },
  {
    "type": "way",
    "id": 186312810,
    "center": {
      "lat": 43.3781245,
      "lon": -5.1849794
    },
    "tags": {
      "addr:city": "Arriondas / Les Arriondes",
      "brand": "Mercadona",
      "brand:wikidata": "Q377705",
      "brand:wikipedia": "es:Mercadona",
      "building": "retail",
      "name": "Mercadona",
      "nohousenumber": "yes",
      "opening_hours": "Mo-Sa 09:00-21:30",
      "phone": "+34 985 840 765",
      "shop": "supermarket",
      "website": "https://www.mercadona.es"
    }
  },
  {
    "type": "way",
    "id": 197245867,
    "center": {
      "lat": 43.3658831,
      "lon": -5.8724099
    },
    "tags": {
      "addr:city": "Oviedo/Uviéu",
      "building": "retail",
      "name": "Supermercado Familia",
      "shop": "supermarket"
    }
  },
  {
    "type": "way",
    "id": 198926367,
    "center": {
      "lat": 43.3895484,
      "lon": -5.6619347
    },
    "tags": {
      "addr:city": "Pola de Siero",
      "brand": "Mercadona",
      "brand:wikidata": "Q377705",
      "brand:wikipedia": "es:Mercadona",
      "building": "yes",
      "name": "Mercadona",
      "opening_hours": "Mo-Sa 09:15-21:15",
      "shop": "supermarket",
      "website": "https://www.mercadona.es"
    }
  },
  {
    "type": "way",
    "id": 215284287,
    "center": {
      "lat": 43.5397689,
      "lon": -5.6876946
    },
    "tags": {
      "brand": "Mercadona",
      "brand:wikidata": "Q377705",
      "brand:wikipedia": "es:Mercadona",
      "building": "commercial",
      "height": "4.5",
      "name": "Mercadona",
      "shop": "supermarket",
      "website": "https://www.mercadona.es",
      "wheelchair": "yes"
    }
  },
  {
    "type": "way",
    "id": 217149508,
    "center": {
      "lat": 43.3932296,
      "lon": -5.704798
    },
    "tags": {
      "addr:city": "Noreña",
      "brand": "masymas",
      "brand:wikidata": "Q6135987",
      "building": "yes",
      "name": "masymas",
      "operator": "Hijos de Luis Rodríguez, S.A.",
      "operator:wikidata": "Q111520108",
      "shop": "supermarket"
    }
  },
  {
    "type": "way",
    "id": 222353481,
    "center": {
      "lat": 43.542357,
      "lon": -6.1010782
    },
    "tags": {
      "brand": "Alcampo",
      "brand:wikidata": "Q2832081",
      "building": "yes",
      "name": "Alcampo",
      "phone": "+34 913 687 857",
      "shop": "supermarket"
    }
  },
  {
    "type": "way",
    "id": 225530980,
    "center": {
      "lat": 43.5464755,
      "lon": -5.9020525
    },
    "tags": {
      "building": "yes",
      "name": "Familia",
      "shop": "supermarket"
    }
  },
  {
    "type": "way",
    "id": 230769668,
    "center": {
      "lat": 43.4252928,
      "lon": -6.772524
    },
    "tags": {
      "building": "yes",
      "name": "Bar-tienda Casa Matías / El Teixo",
      "shop": "supermarket"
    }
  },
  {
    "type": "way",
    "id": 237429588,
    "center": {
      "lat": 43.4375076,
      "lon": -6.7596993
    },
    "tags": {
      "addr:city": "Miñagón (Bual)",
      "addr:postcode": "33798",
      "addr:street": "Miñagón",
      "building": "yes",
      "name": "Bar-tienda El Bodego",
      "nohousenumber": "yes",
      "phone": "+34 985620643",
      "shop": "supermarket"
    }
  },
  {
    "type": "way",
    "id": 240472857,
    "center": {
      "lat": 43.3658756,
      "lon": -5.8837208
    },
    "tags": {
      "addr:city": "Oviedo",
      "brand": "Alimerka",
      "brand:wikidata": "Q16482738",
      "brand:wikipedia": "es:Alimerka",
      "building": "retail",
      "name": "Alimerka",
      "shop": "supermarket"
    }
  },
  {
    "type": "way",
    "id": 248544203,
    "center": {
      "lat": 43.3066783,
      "lon": -5.6937138
    },
    "tags": {
      "addr:city": "Langreo / Llangréu",
      "addr:housenumber": "52,54",
      "addr:postcode": "33930",
      "addr:street": "Calle del Norte",
      "brand": "Lidl",
      "brand:website": "https://www.lidl.es",
      "brand:wikidata": "Q151954",
      "brand:wikipedia": "en:Lidl",
      "building": "retail",
      "building:levels": "1",
      "name": "Lidl",
      "opening_hours": "Mo-Sa 09:00-22:00",
      "payment:apple_pay": "yes",
      "payment:cash": "yes",
      "payment:contactless": "yes",
      "payment:credit_cards": "yes",
      "payment:debit_cards": "yes",
      "payment:google_pay": "yes",
      "shop": "supermarket",
      "wheelchair": "yes"
    }
  },
  {
    "type": "way",
    "id": 251150926,
    "center": {
      "lat": 43.3130476,
      "lon": -5.696029
    },
    "tags": {
      "brand": "Dia",
      "brand:wikidata": "Q925132",
      "brand:wikipedia": "es:DIA (supermercados)",
      "building": "retail",
      "building:levels": "1",
      "name": "Dia",
      "shop": "supermarket"
    }
  },
  {
    "type": "way",
    "id": 251212680,
    "center": {
      "lat": 43.1467837,
      "lon": -5.8249625
    },
    "tags": {
      "brand": "Mercadona",
      "brand:wikidata": "Q377705",
      "brand:wikipedia": "es:Mercadona",
      "building": "yes",
      "name": "Mercadona",
      "operator": "Mercadona",
      "shop": "supermarket",
      "website": "https://www.mercadona.es"
    }
  },
  {
    "type": "way",
    "id": 251212693,
    "center": {
      "lat": 43.1644979,
      "lon": -5.8292084
    },
    "tags": {
      "brand": "Dia Market",
      "brand:wikidata": "Q925132",
      "brand:wikipedia": "es:Supermercados DIA",
      "building": "yes",
      "name": "Dia Market",
      "shop": "supermarket"
    }
  },
  {
    "type": "way",
    "id": 259785237,
    "center": {
      "lat": 43.3462174,
      "lon": -5.6289539
    },
    "tags": {
      "addr:city": "Carbayin Alto",
      "building": "retail",
      "name": "El Economato",
      "opening_hours": "Mo-Fr 08:30-15:00",
      "shop": "supermarket"
    }
  },
  {
    "type": "way",
    "id": 265386896,
    "center": {
      "lat": 43.2064316,
      "lon": -5.7919118
    },
    "tags": {
      "addr:city": "Uxo",
      "addr:postcode": "33640",
      "addr:street": "Barrio Viñuela",
      "brand": "Spar",
      "brand:wikidata": "Q610492",
      "building": "yes",
      "name": "Spar",
      "opening_hours": "Mo-Fr 08:00-15:00",
      "payment:apple_pay": "yes",
      "payment:cash": "yes",
      "payment:coins": "yes",
      "payment:contactless": "yes",
      "payment:credit_cards": "yes",
      "payment:debit_cards": "yes",
      "payment:mastercard": "yes",
      "shop": "supermarket"
    }
  },
  {
    "type": "way",
    "id": 266118319,
    "center": {
      "lat": 43.2306748,
      "lon": -5.7799683
    },
    "tags": {
      "brand": "Dia",
      "brand:wikidata": "Q925132",
      "brand:wikipedia": "es:DIA (supermercados)",
      "building": "yes",
      "name": "Dia",
      "shop": "supermarket"
    }
  },
  {
    "type": "way",
    "id": 266135420,
    "center": {
      "lat": 43.6117311,
      "lon": -5.8039302
    },
    "tags": {
      "brand:wikipedia": "de:Famila",
      "building": "retail",
      "name": "Familia",
      "opening_hours": "Mo-Sa 09:00-21:30",
      "shop": "supermarket",
      "wheelchair": "yes"
    }
  },
  {
    "type": "way",
    "id": 267390684,
    "center": {
      "lat": 43.5283748,
      "lon": -5.6142443
    },
    "tags": {
      "brand": "Mercadona",
      "brand:wikidata": "Q377705",
      "brand:wikipedia": "es:Mercadona",
      "building": "commercial",
      "name": "Mercadona",
      "shop": "supermarket",
      "website": "https://www.mercadona.es"
    }
  },
  {
    "type": "way",
    "id": 269486503,
    "center": {
      "lat": 43.3773274,
      "lon": -5.8344949
    },
    "tags": {
      "addr:city": "Oviedo",
      "addr:postcode": "33011",
      "addr:street": "Avenida del Mar",
      "brand": "Lidl",
      "brand:website": "https://www.lidl.es",
      "brand:wikidata": "Q151954",
      "brand:wikipedia": "en:Lidl",
      "building": "yes",
      "name": "Lidl",
      "shop": "supermarket"
    }
  },
  {
    "type": "way",
    "id": 272210258,
    "center": {
      "lat": 43.5381493,
      "lon": -5.7020089
    },
    "tags": {
      "addr:city": "Gijón",
      "brand": "Alimerka",
      "brand:wikidata": "Q16482738",
      "building": "industrial",
      "check_date": "2025-03-06",
      "check_date:opening_hours": "2025-03-06",
      "name": "Alimerka",
      "opening_hours": "Mo-Sa 09:00-21:30",
      "shop": "supermarket",
      "wheelchair": "yes"
    }
  },
  {
    "type": "way",
    "id": 282938271,
    "center": {
      "lat": 43.3939922,
      "lon": -6.0605147
    },
    "tags": {
      "addr:city": "Grado/Grau",
      "brand": "Alimerka",
      "brand:wikidata": "Q16482738",
      "brand:wikipedia": "es:Alimerka",
      "building": "yes",
      "name": "Alimerka",
      "operator": "Alimerka",
      "shop": "supermarket"
    }
  },
  {
    "type": "way",
    "id": 282938272,
    "center": {
      "lat": 43.3935965,
      "lon": -6.0591111
    },
    "tags": {
      "addr:city": "Grau/Grado",
      "brand": "Lidl",
      "brand:website": "https://www.lidl.es",
      "brand:wikidata": "Q151954",
      "brand:wikipedia": "en:Lidl",
      "building": "yes",
      "name": "Lidl",
      "operator": "Lidl",
      "shop": "supermarket"
    }
  },
  {
    "type": "way",
    "id": 284872388,
    "center": {
      "lat": 43.1829595,
      "lon": -5.3455442
    },
    "tags": {
      "addr:city": "El Campu",
      "building": "detached",
      "building:levels": "2",
      "name": "Tu Tienda",
      "roof:levels": "1",
      "roof:shape": "gabled",
      "shop": "supermarket"
    }
  },
  {
    "type": "way",
    "id": 286353554,
    "center": {
      "lat": 43.5478556,
      "lon": -5.9140466
    },
    "tags": {
      "brand": "Lidl",
      "brand:website": "https://www.lidl.es",
      "brand:wikidata": "Q151954",
      "brand:wikipedia": "en:Lidl",
      "building": "retail",
      "building:levels": "1",
      "check_date": "2025-03-05",
      "check_date:opening_hours": "2025-03-05",
      "name": "Lidl",
      "opening_hours": "Mo-Sa 09:00-21:30",
      "roof:levels": "0",
      "roof:shape": "flat",
      "shop": "supermarket",
      "wheelchair": "yes"
    }
  },
  {
    "type": "way",
    "id": 294265351,
    "center": {
      "lat": 43.5418084,
      "lon": -5.6383741
    },
    "tags": {
      "brand": "masymas",
      "brand:wikidata": "Q6135987",
      "brand:wikipedia": "es:Supermercados Masymas",
      "building": "retail",
      "name": "masymas",
      "operator": "Hijos de Luis Rodríguez, S.A.",
      "operator:wikidata": "Q111520108",
      "shop": "supermarket"
    }
  },
  {
    "type": "way",
    "id": 296558327,
    "center": {
      "lat": 43.5555606,
      "lon": -6.169021
    },
    "tags": {
      "addr:street": "Calle Las Dueñas",
      "brand": "masymas",
      "brand:wikidata": "Q6135987",
      "brand:wikipedia": "es:Supermercados Masymas",
      "building": "retail",
      "building:levels": "1",
      "check_date": "2025-03-05",
      "dog": "no",
      "name": "masymas",
      "opening_hours": "Mo-Sa 09:00-21:30",
      "operator": "Hijos de Luis Rodríguez, S.A.",
      "operator:wikidata": "Q111520108",
      "phone": "+34 985 590928",
      "roof:levels": "0",
      "roof:shape": "flat",
      "shop": "supermarket",
      "wheelchair": "yes"
    }
  },
  {
    "type": "way",
    "id": 297285754,
    "center": {
      "lat": 43.2858068,
      "lon": -5.6702713
    },
    "tags": {
      "addr:city": "Ciañu",
      "addr:postcode": "33900",
      "addr:street": "san antonio",
      "building": "yes",
      "name": "sefi",
      "shop": "supermarket"
    }
  },
  {
    "type": "way",
    "id": 300300047,
    "center": {
      "lat": 43.5196615,
      "lon": -5.6745235
    },
    "tags": {
      "addr:city": "Gijón",
      "addr:postcode": "33211",
      "addr:street": "Calle Velázquez",
      "brand": "Mercadona",
      "brand:wikidata": "Q377705",
      "brand:wikipedia": "es:Mercadona",
      "building": "commercial",
      "name": "Mercadona",
      "nohousenumber": "yes",
      "phone": "+34 985144596",
      "shop": "supermarket",
      "website": "https://www.mercadona.es"
    }
  },
  {
    "type": "way",
    "id": 309055932,
    "center": {
      "lat": 43.299338,
      "lon": -5.6894085
    },
    "tags": {
      "addr:city": "Langreo/Llangréu",
      "addr:postcode": "33900",
      "addr:street": "Calle El Fondón",
      "branch": "Fondón",
      "brand": "Spar",
      "brand:wikidata": "Q610492",
      "building": "retail",
      "email": "sparfondon@grupocuevas.com",
      "name": "Spar",
      "operator": "SPAR",
      "phone": "+34 985 695 991",
      "shop": "supermarket"
    }
  },
  {
    "type": "way",
    "id": 322684001,
    "center": {
      "lat": 43.2454844,
      "lon": -5.777096
    },
    "tags": {
      "addr:street": "Cai / Calle Valeriano Miranda",
      "brand": "Alimerka",
      "brand:wikidata": "Q16482738",
      "brand:wikipedia": "es:Alimerka",
      "building": "commercial",
      "name": "Alimerka",
      "opening_hours": "09:00-21:00",
      "operator": "Alimerka",
      "shop": "supermarket"
    }
  },
  {
    "type": "way",
    "id": 329964841,
    "center": {
      "lat": 43.1557729,
      "lon": -4.6186701
    },
    "tags": {
      "addr:housenumber": "22",
      "addr:postcode": "39570",
      "addr:street": "Calle de San Roque",
      "brand": "Lupa",
      "brand:wikidata": "Q58044048",
      "building": "retail",
      "building:levels": "2",
      "building:levels:underground": "1",
      "bulk_purchase": "yes",
      "name": "Lupa",
      "opening_hours": "Mo-Sa 09:00-21:30",
      "organic": "yes",
      "shop": "supermarket",
      "wheelchair": "yes"
    }
  },
  {
    "type": "way",
    "id": 330103721,
    "center": {
      "lat": 43.3746256,
      "lon": -4.499031
    },
    "tags": {
      "addr:city": "Pesués",
      "addr:street": "Barrio Lansar",
      "brand": "Lupa",
      "brand:wikidata": "Q58044048",
      "building": "yes",
      "check_date": "2025-03-08",
      "internet_access": "wlan",
      "name": "Lupa",
      "shop": "supermarket",
      "wheelchair": "yes"
    }
  },
  {
    "type": "way",
    "id": 343752495,
    "center": {
      "lat": 43.5200896,
      "lon": -5.6697637
    },
    "tags": {
      "addr:city": "Gijón",
      "brand": "Alimerka",
      "brand:wikidata": "Q16482738",
      "brand:wikipedia": "es:Alimerka",
      "building": "retail",
      "building:levels": "1",
      "check_date": "2023-08-25",
      "name": "Alimerka",
      "roof:levels": "0",
      "shop": "supermarket",
      "source": "catastro",
      "source:date": "2015-01"
    }
  },
  {
    "type": "way",
    "id": 350168763,
    "center": {
      "lat": 43.534004,
      "lon": -6.5217616
    },
    "tags": {
      "brand": "Alimerka",
      "brand:wikidata": "Q16482738",
      "brand:wikipedia": "es:Alimerka",
      "building": "retail",
      "check_date": "2025-03-05",
      "internet_access": "wlan",
      "internet_access:fee": "no",
      "name": "Alimerka",
      "shop": "supermarket",
      "wheelchair": "yes"
    }
  },
  {
    "type": "way",
    "id": 362306525,
    "center": {
      "lat": 43.5346109,
      "lon": -5.6372823
    },
    "tags": {
      "branch": "de El Molinón",
      "brand": "Mercadona",
      "brand:wikidata": "Q377705",
      "building": "yes",
      "height": "2",
      "name": "Mercadona",
      "shop": "supermarket"
    }
  },
  {
    "type": "way",
    "id": 380100989,
    "center": {
      "lat": 43.3703822,
      "lon": -5.8185689
    },
    "tags": {
      "building": "yes",
      "name": "Supercash",
      "shop": "supermarket"
    }
  },
  {
    "type": "way",
    "id": 389634257,
    "center": {
      "lat": 43.5290826,
      "lon": -5.6502864
    },
    "tags": {
      "addr:city": "Gijón",
      "addr:postcode": "33204",
      "addr:street": "Calle Muros de Galicia",
      "brand": "Lidl",
      "brand:website": "https://www.lidl.es",
      "brand:wikidata": "Q151954",
      "brand:wikipedia": "en:Lidl",
      "building": "commercial",
      "building:levels": "1",
      "name": "Lidl",
      "opening_hours": "Mo-Sa 09:00-21:30",
      "shop": "supermarket"
    }
  },
  {
    "type": "way",
    "id": 405904047,
    "center": {
      "lat": 42.9384349,
      "lon": -5.6565842
    },
    "tags": {
      "shop": "supermarket"
    }
  },
  {
    "type": "way",
    "id": 414344957,
    "center": {
      "lat": 43.354406,
      "lon": -5.8619294
    },
    "tags": {
      "brand": "Alimerka",
      "brand:wikidata": "Q16482738",
      "brand:wikipedia": "es:Alimerka",
      "building": "yes",
      "name": "Alimerka",
      "shop": "supermarket"
    }
  },
  {
    "type": "way",
    "id": 448204324,
    "center": {
      "lat": 43.2586415,
      "lon": -5.5725162
    },
    "tags": {
      "building": "yes",
      "shop": "supermarket"
    }
  },
  {
    "type": "way",
    "id": 454960889,
    "center": {
      "lat": 43.4643703,
      "lon": -5.0883546
    },
    "tags": {
      "addr:housenumber": "145",
      "air_conditioning": "yes",
      "brand": "Alimerka",
      "brand:wikidata": "Q16482738",
      "brand:wikipedia": "es:Alimerka",
      "building": "retail",
      "building:levels": "1",
      "check_date": "2025-03-07",
      "check_date:opening_hours": "2025-03-07",
      "currency:EUR": "yes",
      "internet_access": "wlan",
      "internet_access:fee": "no",
      "name": "Alimerka",
      "opening_hours": "Mo-Sa 09:00-21:30",
      "panoramax": "e21a8103-d377-43b5-9dc8-27cfc6c28a7d",
      "payment:cash": "yes",
      "payment:credit_cards": "yes",
      "payment:debit_cards": "yes",
      "roof:levels": "0",
      "shop": "supermarket",
      "stroller": "yes",
      "toilets": "yes",
      "wheelchair": "yes"
    }
  },
  {
    "type": "way",
    "id": 458935130,
    "center": {
      "lat": 43.3771464,
      "lon": -5.7934937
    },
    "tags": {
      "brand": "Alimerka",
      "brand:wikidata": "Q16482738",
      "brand:wikipedia": "es:Alimerka",
      "building": "retail",
      "name": "Alimerka",
      "shop": "supermarket"
    }
  },
  {
    "type": "way",
    "id": 470015070,
    "center": {
      "lat": 43.3546756,
      "lon": -5.8600304
    },
    "tags": {
      "addr:housenumber": "26",
      "addr:street": "Calle Monte Cerrao",
      "brand": "Mercadona",
      "brand:wikidata": "Q377705",
      "brand:wikipedia": "es:Mercadona",
      "building": "retail",
      "building:levels": "1",
      "name": "Mercadona",
      "opening_hours": "Mo-Sa 09:00-21:00",
      "roof:levels": "1",
      "shop": "supermarket",
      "website": "https://www.mercadona.es"
    }
  },
  {
    "type": "way",
    "id": 475012697,
    "center": {
      "lat": 43.5385707,
      "lon": -7.0548457
    },
    "tags": {
      "addr:city": "Ribadeo",
      "addr:postcode": "27700",
      "addr:street": "Avenida América",
      "brand": "Dia",
      "brand:wikidata": "Q925132",
      "brand:wikipedia": "es:DIA (supermercados)",
      "building": "yes",
      "building:levels": "1",
      "name": "Dia",
      "shop": "supermarket",
      "smoking": "no"
    }
  },
  {
    "type": "way",
    "id": 518457214,
    "center": {
      "lat": 43.4051565,
      "lon": -5.8050413
    },
    "tags": {
      "addr:city": "Lugones",
      "addr:housenumber": "36",
      "addr:postcode": "33420",
      "addr:street": "Calle Antonio Machado",
      "brand": "Alimerka",
      "brand:wikidata": "Q16482738",
      "brand:wikipedia": "es:Alimerka",
      "building": "yes",
      "name": "Alimerka",
      "operator": "Alimerka",
      "shop": "supermarket"
    }
  },
  {
    "type": "way",
    "id": 523512130,
    "center": {
      "lat": 43.4150443,
      "lon": -4.7518095
    },
    "tags": {
      "addr:city": "Llanes",
      "air_conditioning": "yes",
      "brand": "Alimerka",
      "brand:wikidata": "Q16482738",
      "brand:wikipedia": "es:Alimerka",
      "building": "yes",
      "check_date": "2025-03-07",
      "check_date:opening_hours": "2025-03-07",
      "currency:EUR": "yes",
      "internet_access": "wlan",
      "internet_access:fee": "no",
      "name": "Alimerka",
      "opening_hours": "Mo-Sa 09:00-21:30",
      "payment:cash": "yes",
      "payment:credit_cards": "yes",
      "payment:debit_cards": "yes",
      "shop": "supermarket",
      "source": "survey",
      "stroller": "yes",
      "wheelchair": "yes"
    }
  },
  {
    "type": "way",
    "id": 534338375,
    "center": {
      "lat": 43.3538126,
      "lon": -5.8360794
    },
    "tags": {
      "addr:postcode": "33008",
      "brand": "Alimerka",
      "brand:wikidata": "Q16482738",
      "brand:wikipedia": "es:Alimerka",
      "building": "retail",
      "name": "Alimerka",
      "opening_hours": "Mo-Sa 09:00-21:30",
      "shop": "supermarket"
    }
  },
  {
    "type": "way",
    "id": 573925867,
    "center": {
      "lat": 42.9369036,
      "lon": -6.3221911
    },
    "tags": {
      "brand": "Gadis",
      "brand:wikidata": "Q114398305",
      "brand:wikipedia": "gl:Gadisa",
      "building": "commercial",
      "name": "Gadis",
      "shop": "supermarket"
    }
  },
  {
    "type": "way",
    "id": 580765333,
    "center": {
      "lat": 43.5640578,
      "lon": -6.6493285
    },
    "tags": {
      "building": "yes",
      "name": "Autoservicio Celaya",
      "shop": "supermarket"
    }
  },
  {
    "type": "way",
    "id": 602271499,
    "center": {
      "lat": 43.2486373,
      "lon": -5.5700721
    },
    "tags": {
      "brand": "Dia",
      "brand:wikidata": "Q925132",
      "building": "yes",
      "name": "Dia",
      "shop": "supermarket"
    }
  },
  {
    "type": "way",
    "id": 602778073,
    "center": {
      "lat": 43.5469732,
      "lon": -5.928178
    },
    "tags": {
      "brand": "Alimerka",
      "brand:wikidata": "Q16482738",
      "brand:wikipedia": "es:Alimerka",
      "building": "yes",
      "name": "Alimerka",
      "shop": "supermarket",
      "wheelchair": "yes"
    }
  },
  {
    "type": "way",
    "id": 604794671,
    "center": {
      "lat": 43.1710391,
      "lon": -5.7420225
    },
    "tags": {
      "addr:city": "Morea / Moreda",
      "building": "yes",
      "name": "El Economato",
      "shop": "supermarket"
    }
  },
  {
    "type": "way",
    "id": 620990052,
    "center": {
      "lat": 43.5648722,
      "lon": -6.6478301
    },
    "tags": {
      "building": "yes",
      "name": "AMK tu súper",
      "shop": "supermarket"
    }
  },
  {
    "type": "way",
    "id": 741107714,
    "center": {
      "lat": 43.5307599,
      "lon": -5.6464355
    },
    "tags": {
      "addr:city": "Gijón",
      "brand": "Mercadona",
      "brand:wikidata": "Q377705",
      "brand:wikipedia": "es:Mercadona",
      "building": "retail",
      "check_date": "2025-03-06",
      "name": "Mercadona",
      "shop": "supermarket",
      "website": "https://www.mercadona.es",
      "wheelchair": "yes"
    }
  },
  {
    "type": "way",
    "id": 771991680,
    "center": {
      "lat": 43.5128237,
      "lon": -5.6673293
    },
    "tags": {
      "addr:city": "Gijón",
      "addr:street": "Calle Benito Otero Martínez",
      "brand": "Alimerka",
      "brand:wikidata": "Q16482738",
      "brand:wikipedia": "es:Alimerka",
      "building": "supermarket",
      "name": "Alimerka",
      "opening_hours": "Mo-Sa 09:00-21:30",
      "payment:cash": "yes",
      "payment:debit_cards": "yes",
      "phone": "+34 984849173",
      "shop": "supermarket",
      "wheelchair": "yes"
    }
  },
  {
    "type": "way",
    "id": 782127033,
    "center": {
      "lat": 43.3222878,
      "lon": -5.7187583
    },
    "tags": {
      "brand": "masymas",
      "brand:wikidata": "Q6135987",
      "brand:wikipedia": "es:Supermercados Masymas",
      "building": "yes",
      "name": "masymas",
      "operator": "Hijos de Luis Rodríguez, S.A.",
      "operator:wikidata": "Q111520108",
      "shop": "supermarket"
    }
  },
  {
    "type": "way",
    "id": 807807832,
    "center": {
      "lat": 43.5475299,
      "lon": -6.4441172
    },
    "tags": {
      "addr:city": "Queirúas",
      "addr:postcode": "33787",
      "addr:street": "El Barreirón",
      "building": "yes",
      "name": "Campoastur",
      "nohousenumber": "yes",
      "opening_hours": "Mo-Fr 10:30-13:30,15:30-19:30; Sa 10:00-14:00",
      "operator": "Campoastur",
      "payment:cash": "yes",
      "payment:credit_cards": "yes",
      "phone": "+34 985 47 50 38",
      "shop": "supermarket"
    }
  },
  {
    "type": "way",
    "id": 849931518,
    "center": {
      "lat": 43.1554145,
      "lon": -4.6192468
    },
    "tags": {
      "brand": "BM",
      "brand:wikidata": "Q62073462",
      "building": "supermarket",
      "bulk_purchase": "yes",
      "name": "BM",
      "opening_hours": "Mo-Sa 09:00-21:30",
      "organic": "yes",
      "shop": "supermarket",
      "source:geometry": "Imagen de Catastro de España",
      "wheelchair": "yes"
    }
  },
  {
    "type": "way",
    "id": 906925671,
    "center": {
      "lat": 43.5350477,
      "lon": -5.6913267
    },
    "tags": {
      "addr:city": "Gijón",
      "brand": "Lidl",
      "brand:website": "https://www.lidl.es",
      "brand:wikidata": "Q151954",
      "brand:wikipedia": "en:Lidl",
      "building": "yes",
      "name": "Lidl",
      "shop": "supermarket"
    }
  },
  {
    "type": "way",
    "id": 949101110,
    "center": {
      "lat": 43.4087695,
      "lon": -5.8023459
    },
    "tags": {
      "addr:city": "Lugones",
      "branch": "Lugones",
      "brand": "Lidl",
      "brand:website": "https://www.lidl.es",
      "brand:wikidata": "Q151954",
      "brand:wikipedia": "en:Lidl",
      "building": "yes",
      "name": "Lidl",
      "shop": "supermarket"
    }
  },
  {
    "type": "way",
    "id": 980940263,
    "center": {
      "lat": 43.4472645,
      "lon": -6.7051355
    },
    "tags": {
      "building": "yes",
      "name": "Supermercado M Carmen",
      "shop": "supermarket"
    }
  },
  {
    "type": "way",
    "id": 1002568954,
    "center": {
      "lat": 43.3663344,
      "lon": -5.8724583
    },
    "tags": {
      "addr:city": "Oviedo/Uviéu",
      "addr:postcode": "33012",
      "addr:street": "Calle Carreño",
      "brand": "Mercadona",
      "brand:wikidata": "Q377705",
      "building": "yes",
      "name": "Mercadona",
      "operator": "Mercadona",
      "shop": "supermarket",
      "website": "https://www.mercadona.es/"
    }
  },
  {
    "type": "way",
    "id": 1005019537,
    "center": {
      "lat": 43.6126291,
      "lon": -5.8018371
    },
    "tags": {
      "addr:city": "Luanco",
      "brand": "Alimerka",
      "brand:wikidata": "Q16482738",
      "brand:wikipedia": "es:Alimerka",
      "building": "retail",
      "name": "Alimerka",
      "opening_hours": "Mo-Sa 09:00-21:30",
      "operator": "Alimerka",
      "shop": "supermarket"
    }
  },
  {
    "type": "way",
    "id": 1012838350,
    "center": {
      "lat": 43.4123127,
      "lon": -5.7980258
    },
    "tags": {
      "brand": "Aldi",
      "brand:wikidata": "Q41171373",
      "building": "yes",
      "name": "Aldi",
      "shop": "supermarket"
    }
  },
  {
    "type": "way",
    "id": 1053156098,
    "center": {
      "lat": 42.938253,
      "lon": -6.3225809
    },
    "tags": {
      "building": "yes",
      "name": "Familia",
      "operator": "Familia",
      "shop": "supermarket"
    }
  },
  {
    "type": "way",
    "id": 1096081209,
    "center": {
      "lat": 43.5535707,
      "lon": -5.8965184
    },
    "tags": {
      "addr:city": "Avilés",
      "addr:postcode": "33460",
      "addr:street": "Calle Cabo de Gata",
      "brand": "Mercadona",
      "brand:wikidata": "Q377705",
      "building": "yes",
      "name": "Mercadona",
      "nohousenumber": "yes",
      "opening_hours": "Mo-Sa 09:00-21:30; Su off",
      "operator": "Mercadona",
      "phone": "+34 985194605",
      "shop": "supermarket"
    }
  },
  {
    "type": "way",
    "id": 1096081213,
    "center": {
      "lat": 43.5829954,
      "lon": -5.7746951
    },
    "tags": {
      "addr:city": "Candás",
      "addr:housenumber": "19",
      "addr:postcode": "33430",
      "addr:street": "Calle La Matiella",
      "brand": "masymas",
      "brand:wikidata": "Q6135987",
      "building": "yes",
      "name": "masymas",
      "opening_hours": "Mo-Sa 09:00-21:30; Su off",
      "operator": "Hijos de Luis Rodríguez, S.A.",
      "operator:wikidata": "Q111520108",
      "payment:cash": "yes",
      "payment:credit_cards": "yes",
      "payment:debit_cards": "yes",
      "phone": "+34 984181204",
      "shop": "supermarket",
      "website": "https://www.supermasymas.com/",
      "wheelchair": "yes"
    }
  },
  {
    "type": "way",
    "id": 1102661475,
    "center": {
      "lat": 43.3792254,
      "lon": -5.8162521
    },
    "tags": {
      "addr:city": "Oviedo",
      "addr:housenumber": "13",
      "addr:postcode": "33011",
      "addr:street": "Calle Instituto Alfonso II",
      "brand": "Alimerka",
      "brand:wikidata": "Q16482738",
      "building": "yes",
      "name": "Alimerka",
      "shop": "supermarket"
    }
  },
  {
    "type": "way",
    "id": 1113480579,
    "center": {
      "lat": 43.2095675,
      "lon": -5.7398143
    },
    "tags": {
      "building": "yes",
      "name": "El Economato",
      "shop": "supermarket"
    }
  },
  {
    "type": "way",
    "id": 1138134605,
    "center": {
      "lat": 43.3593992,
      "lon": -5.8489866
    },
    "tags": {
      "addr:city": "Oviedo",
      "addr:housenumber": "58",
      "addr:street": "Calle Rosal",
      "brand": "Alimerka",
      "brand:wikidata": "Q16482738",
      "brand:wikipedia": "es:Alimerka",
      "building": "yes",
      "name": "Alimerka",
      "opening_hours": "Mo-Sa 09:00-21:30",
      "shop": "supermarket"
    }
  },
  {
    "type": "way",
    "id": 1152656773,
    "center": {
      "lat": 43.3860618,
      "lon": -6.074728
    },
    "tags": {
      "brand": "Alcampo",
      "building": "retail",
      "shop": "supermarket"
    }
  },
  {
    "type": "way",
    "id": 1178800918,
    "center": {
      "lat": 43.5096793,
      "lon": -5.6776362
    },
    "tags": {
      "addr:city": "Gijón",
      "addr:housenumber": "325",
      "addr:postcode": "33209",
      "addr:street": "Carretera de la Carbonera",
      "brand": "Aldi",
      "brand:wikidata": "Q41171373",
      "building": "yes",
      "name": "Aldi",
      "opening_hours": "Mo-Sa 09:00-21:30",
      "operator": "ALDI Supermercados",
      "phone": "+34900902466",
      "shop": "supermarket"
    }
  },
  {
    "type": "way",
    "id": 1222753400,
    "center": {
      "lat": 43.561374,
      "lon": -6.0711771
    },
    "tags": {
      "addr:city": "L'Arena",
      "addr:housenumber": "24",
      "addr:postcode": "33125",
      "addr:street": "Calle Rubén Darío",
      "building": "yes",
      "name": "Calatrava Alimentación",
      "shop": "supermarket"
    }
  },
  {
    "type": "way",
    "id": 1226244830,
    "center": {
      "lat": 43.5347695,
      "lon": -5.8936676
    },
    "tags": {
      "brand": "Alimerka",
      "brand:wikidata": "Q16482738",
      "building": "yes",
      "name": "Alimerka",
      "shop": "supermarket"
    }
  },
  {
    "type": "way",
    "id": 1371100437,
    "center": {
      "lat": 43.2877605,
      "lon": -5.6294017
    },
    "tags": {
      "brand": "Alcampo",
      "brand:wikidata": "Q2832081",
      "building:part": "commercial",
      "name": "Alcampo",
      "opening_hours": "Mo-Sa 09:00-22:00",
      "payment:american_express": "yes",
      "payment:app": "yes",
      "payment:apple_pay": "yes",
      "payment:cash": "yes",
      "payment:coins": "yes",
      "payment:contactless": "yes",
      "payment:credit_cards": "yes",
      "payment:debit_cards": "yes",
      "payment:google_pay": "yes",
      "payment:mastercard": "yes",
      "payment:nfc": "yes",
      "payment:visa": "yes",
      "phone": "+34 985 65 49 49",
      "shop": "supermarket"
    }
  },
  {
    "type": "way",
    "id": 1455935153,
    "center": {
      "lat": 43.5088748,
      "lon": -5.6950673
    },
    "tags": {
      "building": "retail",
      "name": "Mercadona",
      "shop": "supermarket"
    }
  },
  {
    "type": "way",
    "id": 1459236073,
    "center": {
      "lat": 43.2456172,
      "lon": -5.5654803
    },
    "tags": {
      "brand": "Alimerka",
      "brand:wikidata": "Q16482738",
      "building": "yes",
      "name": "Alimerka",
      "operator": "Alimerka",
      "shop": "supermarket"
    }
  }
]
